id,name,address,city,derived_suburb,state,country,booking_url,city_looks_like_street
8e432b37-8e01-4a98-bc66-f7f7f055cdbe,"5Sports Caringbah","125 The Boulevard, Caringbah NSW 2229","125 The Boulevard","The Boulevard","NSW","Australia","https://5sports.com.au/pitch-booking/",true
be04d3f2-73b8-4367-ba4e-729e04c762ce,"Action Indoor Sports – Box Hill","9 Leslie St, Box Hill VIC","9 Leslie St","9 Leslie St","VIC","Australia","https://www.actionindoorsports.com.au/",true
883c2a9c-d74b-4944-b4e7-89de0b985baf,"Action Indoor Sports – Tullamarine","5/62 Garden Dr, Tullamarine VIC","5/62 Garden Dr","5/62 Garden Dr","VIC","Australia","https://www.actionindoorsports.com.au/",true
fd559da8-6e08-4687-940d-fc636aacd358,"AH Sport Centre","Perth WA","Perth WA","Perth WA","WA","Australia","https://ahsport.net/for-hire/court-hire/",false
4df27688-9fda-43d4-b730-2cf76bc23e98,"Airport West Tennis Club","5 Olive Grove, Airport West VIC","Airport West","Airport West","VIC","Australia","play.tennis.com.au/airportwesttennisclub/booking/bookbydate",false
6aec50e3-c1dd-403c-9841-849fffe5ef68,"Alan Davidson Oval","Wellington Street, Waterloo NSW 2017","Waterloo","Waterloo","NSW","Australia","https://www.cityofsydney.nsw.gov.au/sports-facility-booking-services/book-sports-field",false
d214d69c-7651-4603-9de5-d8b1d0573a15,"Albert Park Tennis & Pickleball Centre (Hockey Drive)","Hockey Dr (off Fitzroy St), Albert Park VIC","Hockey Dr (off Fitzroy St)","Hockey Dr (off Fitzroy St)","VIC","Australia","https://www.tennisvenues.com.au/",true
490e6c2c-7329-471c-bcf9-0ea8d8e54d7f,"Albert Reserve Tennis Centre","46 Queens Rd (Hanna St), Melbourne VIC 3004","46 Queens Rd (Hanna St)","46 Queens Rd (Hanna St)","VIC","Australia","https://tennisworld.perfectgym.com.au/ClientPortal2/#/",true
c294b388-303f-4f04-939b-4a4bbeeb564c,"Albert Reserve Tennis Centre (Tennis World)","46 Queens Rd, Melbourne VIC 3004","46 Queens Rd","46 Queens Rd","VIC","Australia","https://play.tennis.com.au/tennisworldmelbourneparkandalbertreserve",true
b2a5a2f2-220d-4e3c-93c0-076916d3f801,"Albion Tennis Club (Selwyn Park)","62 Selwyn St (Selwyn Park), Albion VIC","Albion","Albion","VIC","Australia","play.tennis.com.au/AlbionTennisClub",false
4941af50-924f-47ec-beb4-b3c9040a0f2c,"Alder Park Sports Club","Perth WA","Perth WA","Perth WA","WA","Australia","https://www.alderparksportsclub.com/futsal-courts",false
cb8b277e-a81d-45cc-881d-fbc5c532833d,"Alexander Park Tennis Club","Clyde Road, Menora WA 6050","Clyde Road","Clyde Road","WA","Australia","https://play.tennis.com.au/APTC",true
604550b1-240a-4f24-8001-fbe3151c6ecb,"Alexandria Oval","Buckland Street, Alexandria NSW 2015","Alexandria","Alexandria","NSW","Australia","https://www.cityofsydney.nsw.gov.au/sports-facility-booking-services/book-sports-field",false
12818e96-5dee-4ed6-8630-94e9c6f58294,"Algie Park","Hawthorne Parade, Haberfield NSW 2045","Haberfield","Haberfield","NSW","Australia","https://www.innerwest.nsw.gov.au/algie-park",false
f80e952a-2bf4-4f2a-ad29-d082c63acaf9,"All Things Pickleball - Butler","Community Centre, Butler WA","Community Centre","Community Centre","WA","Australia","https://allthingspickleball.com.au/pickleball-perth-venues/",false
65f6d8e2-8840-47de-ad54-3e3b0164d976,"All Things Pickleball - Joondalup","Bouncer Sports Centre, Joondalup WA","Bouncer Sports Centre","Bouncer Sports Centre","WA","Australia","https://allthingspickleball.com.au/pickleball-perth-venues/",false
fda1dc10-1767-45e5-a10b-2de58a9f3dd5,"All Things Pickleball - Wanneroo","Wanneroo Showgrounds, Wanneroo WA","Wanneroo Showgrounds","Wanneroo Showgrounds","WA","Australia","https://allthingspickleball.com.au/pickleball-perth-venues/",false
a2b009e5-5fd4-45d9-86a9-e515c09a2fb7,"Allan Small Park Courts (KRG)","Cnr Rosedale Rd & Quarry St, Pymble NSW 2073","Cnr Rosedale Rd & Quarry St","Cnr Rosedale Rd & Quarry St","NSW","Australia","https://krg.bookable.net.au/venues/30/allan-small-park-tennis-courts",true
bd628b75-c46d-47a2-b112-9efe6d56a8de,"Ambiwerra Tennis Centre","Cnr Erinvale St & Rolfe St, Corinda QLD 4075","Cnr Erinvale St & Rolfe St","Cnr Erinvale St & Rolfe St","QLD","Australia","https://www.lifetimetennis.com.au/ambiwerra-tennis-centre",true
01f7a5a9-24e5-4247-a405-022508cc7950,"Arena Joondalup","Joondalup WA","Joondalup WA","Joondalup WA","WA","Australia","https://www.arenajoondalup.com.au/sport/social-sport/futsal-and-soccer",false
4876d052-b1df-48bf-9504-a8d0ebb88c7c,"Arlington Recreation Ground","Grosvenor Crescent, Dulwich Hill NSW 2203","Dulwich Hill","Dulwich Hill","NSW","Australia","https://www.innerwest.nsw.gov.au/arlington",false
5c7456a2-adad-4cdb-80df-af922830afd2,"Ascot Vale Tennis Club (Riverside Tennis Courts)","Newsom St (Riverside Park), Ascot Vale VIC","Ascot Vale","Ascot Vale","VIC","Australia","play.tennis.com.au/riversidetenniscourts",false
7aae58db-7aea-46cc-b983-58aa067696a1,"Avondale Heights Tennis Club","1A Cornwall St (Doyle St Reserve), Avondale Heights VIC","Avondale Heights","Avondale Heights","VIC","Australia","play.tennis.com.au/AvondaleHeightsTennisClub/booking/bookbydate",false
eded064c-0e93-47c5-9c5e-87e91ad7b947,"Ballarat Lawn Tennis Club","Prince of Wales Park, Gillies St N, Ballarat VIC 3355","Gillies St N","Gillies St N","VIC","Australia","https://play.tennis.com.au/BallaratLawnTennisClub",true
f48a9ba7-bd37-4239-aace-d401722f99f8,"Ballarat Lawn Tennis Club","Prince of Wales Park, Gillies St North, Ballarat VIC 3350","Gillies St North","Gillies St North","VIC","Australia","https://play.tennis.com.au/ballaratlawntennisclub/booking/bookbydate",true
f530532d-c57e-4a12-ba5f-24a4510418ad,"Ballarat Regional Tennis Centre","Dowling St, Wendouree VIC 3355","Dowling St","Dowling St","VIC","Australia","https://play.tennis.com.au/BallaratRegionalTennisCentre",true
ab254c46-35f3-40bd-971e-3d302ce558d1,"Ballarat Regional Tennis Centre","497 Dowling St, Wendouree VIC 3355","497 Dowling St","Dowling St","VIC","Australia","https://play.tennis.com.au/court-hire/ballaratregionaltenniscentre",true
a1fbebd3-5a53-4e14-a979-d6d339e50a72,"Balwyn Park Public Courts","206A Whitehorse Rd, Balwyn VIC","Balwyn","Balwyn","VIC","Australia","play.tennis.com.au/court-hire/BalwynParkTennisClub",false
f3631149-2a62-4bc8-8789-d3ffc7ee5091,"Balwyn Park Tennis Club","206A Whitehorse Rd, Balwyn VIC","Balwyn","Balwyn","VIC","Australia","play.tennis.com.au/court-hire/BalwynParkTennisClub",false
999ed2bc-3c80-45b7-aa0b-abd3e7700245,"Banksia Centre (Camp Banksia)","1 Anderson Street, Port Sorell TAS 7307","Port Sorell","Port Sorell","TAS","Australia","https://www.banksiaportsorell.com/availability/",false
7bb9c22c-4212-4e3d-8071-418f9e7f0815,"Bathurst Street Park Tennis (Greystanes)","Bathurst St Park, Greystanes NSW 2145","Bathurst St Park","Bathurst St Park","NSW","Australia","https://play.tennis.com.au/bathurststreetparktenniscourts/Booking/BookByDate",true
3b01a468-99fa-4b2b-91e1-66e39cef148d,"Beaman Park","Beaman Street, Earlwood NSW 2206","Earlwood","Earlwood","NSW","Australia","https://www.canterbury-bankstown.nsw.gov.au/beaman-park",false
59a68df6-b89f-447b-a39b-7a7da9f84c8d,"Belmont Oval","Belmont WA","Belmont WA","Belmont WA","WA","Australia","https://www.spacetoco.com/space/belmont-oval",false
10fe2083-c0c3-48b7-be22-a8649a0e8902,"Bendigo Regional Tennis Centre","21–26 Nolan St, Bendigo VIC 3550","21–26 Nolan St","21–26 Nolan St","VIC","Australia","https://play.tennis.com.au/court-hire/BendigoTennisComplex",true
ce351a8e-a210-4ee8-9981-239ba5fdc480,"Bendigo Regional Tennis Centre","21 Nolan St, Bendigo VIC 3550","21 Nolan St","21 Nolan St","VIC","Australia","https://play.tennis.com.au/BendigoRegionalTennisCentre",true
8fc8a278-8c2b-4ba9-a2ed-f655974222ea,"Bernie Mullane Sports Complex","Marella Avenue, Kellyville NSW 2155","Kellyville","Kellyville","NSW","Australia","https://www.thehills.nsw.gov.au/bernie-mullane",false
116f3e7e-bae9-4c22-8b8a-070919db4f45,"Bexley Tennis Courts","369E Bexley Rd, Bexley NSW 2207","369E Bexley Rd","369E Bexley Rd","NSW","Australia","https://www.tennisvenues.com.au/booking/bexley-tennis-courts",true
389dd1af-7ecf-49f9-9fba-84ebbb7d756b,"Binalong Park Tennis Courts (Old Toongabbie)","Binalong Rd, Old Toongabbie NSW 2146","Binalong Rd","Binalong Rd","NSW","Australia","https://play.tennis.com.au/binalongparktenniscourts",true
eabc7c97-3c33-40b8-87c1-af5ab82efe0b,"Birchgrove Oval","Birchgrove Road, Birchgrove NSW 2041","Birchgrove","Birchgrove","NSW","Australia","https://www.innerwest.nsw.gov.au/birchgrove-oval",false
fa5257dc-b605-4465-af34-52c94aab94ff,"Birchgrove Tennis Centre","Cnr Louisa Rd & Rose St, Birchgrove NSW 2041","Cnr Louisa Rd & Rose St","Cnr Louisa Rd & Rose St","NSW","Australia","https://play.tennis.com.au/birchgrovetenniscentre/Booking/BookByDate",true
ec5b4289-3207-4a17-949c-b258ac3df25a,"Birchgrove Tennis Club","Louisa Road, Birchgrove NSW 2041","Birchgrove","Birchgrove","NSW","Australia","https://www.birchgrovetennis.com.au/",false
2c432ed9-072d-436f-a3d7-0b592996b8cf,"Blackburn Tennis Club (Morton Park)","Cnr Central Rd & Blackburn Rd (Morton Park), Blackburn VIC","Blackburn","Blackburn","VIC","Australia","tennisvenues.com.au/venue/blackburn-vic-tc",false
d61c1491-ad10-42c7-981a-8e818402ffbd,"Blackmore Oval","Balmain Road, Leichhardt NSW 2040","Leichhardt","Leichhardt","NSW","Australia","https://www.innerwest.nsw.gov.au/blackmore-oval",false
f23be1bd-055c-4338-b189-e13131a80850,"Blacktown Leisure Centre Stanhope","2 Sentry Drive, Stanhope Gardens NSW 2768","Stanhope Gardens","2 Sentry Drive","NSW","Australia","https://www.blacktown.nsw.gov.au/stanhope",true
f815ca3f-e5a6-4b58-bb28-f78473d15945,"Boroondara Tennis Centre","150 Bulleen Rd, Balwyn North VIC","150 Bulleen Rd","Bulleen Rd","VIC","Australia","https://www.boroondaratenniscentre.com.au/",true
ca0b0b8f-6dad-499c-bd98-ef518dc1a1ee,"Bracken Ridge Tennis Centre","337 Bracken Ridge Rd, Bracken Ridge QLD 4017","337 Bracken Ridge Rd","Bracken Ridge Rd","QLD","Australia","https://www.lifetimetennis.com.au/court-hire",true
ad182796-4e2e-46dc-89a2-311b9b977dab,"Brisbane City Indoor Sports","8 Castlemaine St, Coorparoo QLD 4151","8 Castlemaine St","8 Castlemaine St","QLD","Australia","https://www.brisbanecityindoorsports.com.au/booking/court-hire/",true
a67013c3-e425-49bc-8476-28e328ca703a,"Brisbane West Indoor Sports (Darra)","27 Bellwood St, Darra QLD 4076","27 Bellwood St","27 Bellwood St","QLD","Australia","https://brisbanewest.spawtz.com/",true
7eb76fea-3a04-4aef-add9-d078d6bc8470,"Brooklyn Tennis Club","Cypress Ave, Brooklyn VIC 3012","Cypress Ave","Cypress Ave","VIC","Australia","https://play.tennis.com.au/brooklyntennisclub/booking/bookbydate",true
d69cd547-b59d-4a83-9aa1-f71c20d96072,"Bundha Sports Centre (Fitzroy North)","111 Queens Parade, Fitzroy North VIC","Fitzroy North","Fitzroy North","VIC","Australia","futsalforlife.com.au/fitzroy-bundha-sports-centre",false
1aca98ab-4859-4024-80bd-4b83f6a2862b,"Burnie Tennis Club","Tasmania","Tasmania","Tasmania","","Australia","https://play.tennis.com.au/BurnieTennisClub",false
9e240f41-2fca-47a0-b9fb-419cb376c14d,"Burnie Tennis Club (North West Regional Tennis Centre)","2 Eastwood Drive, Burnie TAS 7320","Burnie","Burnie","TAS","Australia","https://play.tennis.com.au/BurnieTennisClub/court-hire/book-by-date",false
b5796c37-9e67-4075-b96f-8bf8631193bc,"Burwood Tennis Courts","Burwood Park, Burwood NSW 2134","Burwood","Burwood","NSW","Australia","https://www.burwood.nsw.gov.au/tennis",false
f7e7b78e-e965-4f23-ab73-6a4ddec206e3,"Cadbury Tennis Courts (Glenorchy City Council)","Claremont, Glenorchy TAS 7011","Glenorchy","Glenorchy","TAS","Australia","https://www.gcc.tas.gov.au/discover-glenorchy/venues-and-facilities/sporting-facilities/",false
3d4642d1-0d9f-4153-84ca-cebf19809263,"Cahill Park Tennis Courts","Wilbar Avenue, Cronulla NSW 2230","Cronulla","Cronulla","NSW","Australia","https://bayside.bookable.net.au",false
00756af2-5942-43b9-8de1-f5fbf95b107a,"Callan Park","Balmain Road, Rozelle NSW 2039","Rozelle","Rozelle","NSW","Australia","https://www.innerwest.nsw.gov.au/callan-park",false
15526c25-b63f-403c-ae82-085b411162a4,"Cambridge New Soccer Ground","Cambridge Rd, Cambridge TAS 7170","Cambridge Rd","Cambridge Rd","TAS","Australia","https://www.ccc.tas.gov.au/explore/sportsgrounds-for-hire/",true
259cbf4d-e94a-45f3-9dca-71bc9549fe67,"Camellia Indoor Sports Centre","Grand Avenue, Camellia NSW 2142","Camellia","Camellia","NSW","Australia","https://www.cityofparramatta.nsw.gov.au/camellia-indoor",false
1e93323b-245b-4ec8-86a8-40fa2e2fdd1a,"Camperdown Memorial Rest Park","Federation Road, Camperdown NSW 2050","Camperdown","Camperdown","NSW","Australia","https://www.cityofsydney.nsw.gov.au/sports-facility-booking-services/book-sports-field",false
d3be0b64-b222-4339-adef-2a6c94f6d690,"Carlton Gardens Tennis Club","11 Nicholson St, Carlton VIC","Carlton","Carlton","VIC","Australia","play.tennis.com.au/court-hire/CarltonGardensTennisClub",false
8af96e4d-18d3-4842-9ffb-3eb93802c70c,"Caulfield Park Tennis Centre","280 Balaclava Rd, Caulfield North VIC 3161","280 Balaclava Rd","Balaclava Rd","VIC","Australia","https://www.victennisacademy.com.au/book-a-court-caulfield-park/",true
10a05d5a-c216-4f6e-ac35-2b1513bcc63c,"Centennial Parklands Sports Centre","Corner Anzac Parade and Lang Road, Moore Park NSW 2021","Moore Park","Moore Park","NSW","Australia","https://parklandssports.com.au/online-court-bookings/",false
54a1bcb0-810e-4ce5-bc33-62ece366ae4c,"Centennial Parklands Sports Centre – All‑Weather Field","Parkes Dr, Moore Park NSW 2021","Parkes Dr","Parkes Dr","NSW","Australia","https://parklandssports.com.au/field-hire/",true
55259137-7333-4a42-ab59-1f67c1847e6a,"Centennial Parklands Tennis (Moore Park)","Cnr Anzac Pde & Lang Rd, Moore Park NSW 2021","Cnr Anzac Pde & Lang Rd","Cnr Anzac Pde & Lang Rd","NSW","Australia","https://parklandssports.com.au/court-hire/",true
3cc3ad42-ee3c-4e18-8457-9eed475c3978,"Churchill Park Sports Facility","50 Lamont Street (access via Churchill Park Drive), Invermay (Launceston) TAS 7248","Invermay (Launceston)","Invermay (Launceston)","TAS","Australia","https://launceston.bookable.net.au/venues/1/churchill-park-sports-facility",false
985e8353-6610-4145-8e0e-90ac45e9ae0e,"Cintra Park Tennis Centre","383 Concord Road, Concord NSW 2137","Concord","Concord","NSW","Australia","https://www.cpsports.com.au/",false
521b22ab-acc5-4837-96bc-2247de3bd5d8,"City Community Tennis - Alexandria Park","Park Road, Alexandria NSW 2015","Alexandria","Alexandria","NSW","Australia","https://www.citycommunitytennis.com.au/locations",false
9dbf70cc-6118-4616-80e5-0a07cf0963f3,"City Community Tennis - Beaconsfield Park","York Road, Beaconsfield NSW 2015","Beaconsfield","Beaconsfield","NSW","Australia","https://www.citycommunitytennis.com.au/locations",false
50abbe1c-b5ea-422f-a377-c94f7285648a,"City Community Tennis - Prince Alfred Park","Chalmers Street, Prince Alfred Park, Surry Hills NSW 2010","Surry Hills","Surry Hills","NSW","Australia","https://play.tennis.com.au/citycommunitytennisprincealfredpark",false
2ae3d114-302e-4a4a-b3d7-bc15cd2ce306,"City Community Tennis - St James Park","Elizabeth Street, Sydney NSW 2000","Sydney","Sydney","NSW","Australia","https://www.citycommunitytennis.com.au/locations",false
3e6d1486-4864-4a2f-80a2-b22f86fc9334,"City Community Tennis - Turruwul Park","Mentmore Avenue, Rosebery NSW 2018","Rosebery","Rosebery","NSW","Australia","https://www.citycommunitytennis.com.au/locations",false
62d1118d-e679-4e43-8fe3-f9afa357c7ea,"City of Bayswater - The Rise","Bayswater WA","Bayswater WA","Bayswater WA","WA","Australia","https://bayswaterrec.wa.gov.au/the-rise/social-sports-court-hire/",false
1ea45928-6b8c-464b-9331-b22575eabdfd,"City of Bayswater - The Rise (Pickleball)","Bayswater WA","Bayswater WA","Bayswater WA","WA","Australia","https://bayswaterrec.wa.gov.au/the-rise/social-sports-court-hire/",false
c90fb808-6370-410a-b8c9-fb4c1f79a674,"City of Stirling - Hamersley Sports Court","Belvedere Road, Hamersley WA 6022","Belvedere Road","Belvedere Road","WA","Australia","https://www.stirling.wa.gov.au/stirling-leisure/venue-and-facility-hire/sports-court-hamersley-sl",true
10436eaf-3167-4f13-a7d4-f14cb2ec8fc9,"Civic Park Tennis (Pendle Hill)","Targo Rd, Pendle Hill NSW 2145","Targo Rd","Targo Rd","NSW","Australia","https://play.tennis.com.au/civicparktenniscourts/Booking/BookByDate",true
0d664e24-99a4-488d-b42d-175d9c8f13d7,"Clare Street Oval (New Town)","Clare St, New Town TAS 7008","Clare St","Clare St","TAS","Australia","https://www.hobartcity.com.au/Community/Parks-sportsgrounds-and-reserves/Sportsgrounds/Sportsground-bookings",true
9910ce96-9aaa-4f37-81f5-ef962189f6f9,"Claremont Lawn Tennis Club","Claremont WA","Claremont WA","Claremont WA","WA","Australia","https://claremonttennis.com.au/book-a-court/",false
50032483-a2bb-4312-a627-ded73aa56bb5,"Clarence Sports Centre (NFSRA)","20 Loinah Cres, Montagu Bay TAS 7018","20 Loinah Cres","20 Loinah Cres","TAS","Australia","https://nfsra.com.au/court-hire/",true
ac5ca73a-28d7-4caf-b8a4-ae7a0d246091,"Clifton Hill Tennis Club – Pickleball Sessions","2 Hoddle St, Clifton Hill VIC","2 Hoddle St","2 Hoddle St","VIC","Australia","https://cliftonhilltc.org.au",true
e0223553-ffd1-478d-add8-9dfd345c61d0,"Club Marconi – Pickleball","121–133 Prairie Vale Rd, Bossley Park NSW 2176","121–133 Prairie Vale Rd","– Prairie Vale Rd","NSW","Australia","https://www.tennisvenues.com.au/booking/marconi-tennis-academy",true
cefb4f7c-3b30-4abc-a5bd-865159282ffd,"Club Marconi Synthetic Fields","121 Prairie Vale Road, Bossley Park NSW 2176","Bossley Park","Bossley Park","NSW","Australia","https://www.clubmarconi.com.au/field-hire",false
ff034b0f-2f24-4c39-bfd4-3eb61f283426,"Coburg Tennis Club","Cnr Bellevue & Victoria Sts, Coburg VIC","Coburg","Coburg","VIC","Australia","play.tennis.com.au/court-hire/CoburgTennisClub",false
00ec8368-4084-452f-b3e3-56678d00acfb,"Cockburn ARC","Cockburn WA","Cockburn WA","Cockburn WA","WA","Australia","https://www.cockburnarc.com.au/Visit/Booking-Enquiry",false
596b8ddd-c24b-4814-849c-3464e95e4fe7,"Collaroy Tennis Club","Collaroy Plateau Park, Veterans Parade, Collaroy Plateau NSW 2097","Collaroy Plateau","Veterans Parade","NSW","Australia","https://www.northernbeaches.nsw.gov.au/things-to-do/recreation-area/collaroy-plateau-tennis-court",true
904ca61d-88ff-42b3-adf2-54c101300fda,"College Park Tennis Court","College Park, Nedlands WA","College Park","College Park","WA","Australia","https://www.spacetoco.com/space/nedlands-wa-college-park-tennis-court",false
13d8309b-a471-47e9-bec1-6b056232fb77,"Concord Oval Recreation Centre","Loftus Street, Concord NSW 2137","Concord","Concord","NSW","Australia","https://www.canadabay.nsw.gov.au/concord-oval",false
4d7974ba-3a7f-4e24-8af9-0ce453021b60,"Cooper Park Tennis","Bellevue Rd, Bellevue Hill NSW 2023","Bellevue Rd","Bellevue Rd","NSW","Australia","https://cooperparktennis.com.au/book-a-court",true
8d0aef14-5bdb-4d0a-b0cb-8557dd5f7a0b,"Cooper Park Tennis Centre","1 Bunna Place, Woollahra NSW 2025","Woollahra","Woollahra","NSW","Australia","https://play.tennis.com.au/cooperparktennis",false
dd6afb7e-b816-4eb0-b602-d9a27b539ce0,"Cornelian Bay Oval","Cornelian Bay, New Town TAS 7008","Cornelian Bay","Cornelian Bay","TAS","Australia","https://www.hobartcity.com.au/Community/Parks-sportsgrounds-and-reserves/Sportsgrounds/Sportsground-bookings",false
13f60668-ff8f-4166-a87a-d343255aab8d,"Croker Park Tennis Courts (Five Dock)","1C Henley Marine Dr, Five Dock NSW 2046","1C Henley Marine Dr","1C Henley Marine Dr","NSW","Australia","https://www.tennisvenues.com.au/booking/croker-park-tc",true
c76a5bab-830f-4e22-b153-63248d39afa8,"Croydon Tennis Centre","128-132 Frances St, Lidcombe NSW 2141","128-132 Frances St","- Frances St","NSW","Australia","https://www.croydontenniscentre.com.au/tennis-court-hire",true
4f21dfbd-e32c-4762-9c7c-af800b0ecb40,"Croydon Tennis Centre","45 Hennessy Street, Croydon NSW 2132","Croydon","Croydon","NSW","Australia","https://www.croydontenniscentre.com.au/tennis-court-hire",false
bb2071a0-0387-41d4-9ecc-ff75875c2bff,"Dalkeith Tennis Club","Cnr Victoria Ave and Beatrice Road, Dalkeith WA 6009","Cnr Victoria Ave and Beatrice Road","Cnr Victoria Ave and Beatrice Road","WA","Australia","https://www.dalkeithtc.com/court-hire/",true
2229967a-3bba-4ff6-9788-a5dcd09a5428,"Darebin State Football Centre (DISC)","281 Darebin Rd (DISC), Thornbury VIC","281 Darebin Rd (DISC)","Darebin Rd (DISC)","VIC","Australia","https://www.footballvictoria.com.au/",true
e1f0dacd-eccb-460d-bbbd-745988ee4caa,"Devonport Soccer Centre","47 Lovett Street, Devonport TAS 7310","Devonport","Devonport","TAS","Australia","https://devonport.bookable.net.au/venues/20/devonport-soccer-centre",false
3c61b016-b956-4808-a82c-9d001a581749,"Devonport Tennis Club","Eugene Street, Devonport TAS 7310","Devonport","Devonport","TAS","Australia","https://play.tennis.com.au/devonporttennisclub/Booking",false
9c4987fe-c790-432a-8ef1-7f0df51912d0,"Dirrabarri Tennis Courts (Pemulwuy)","Cnr Watkin Tench Pde & Driftway Dr, Pemulwuy NSW 2145","Cnr Watkin Tench Pde & Driftway Dr","Cnr Watkin Tench Pde & Driftway Dr","NSW","Australia","https://play.tennis.com.au/dirrabarritenniscourts",true
f1d22f3b-51d8-4168-8a3e-e841459b8ec7,"Docklands Sports Courts","68–90 Harbour Esplanade, Docklands VIC","68–90 Harbour Esplanade","68–90 Harbour Esplanade","VIC","Australia","https://activemelbourne.ymca.org.au/",true
3b72de1c-f8c9-4e0e-9032-a1c58356da0b,"Domain Tennis Centre","2 Davies Ave, Glebe TAS 7000","2 Davies Ave","2 Davies Ave","TAS","Australia","https://play.tennis.com.au/DomainTennis",true
8353cee8-0805-454d-9dc1-971569dc558c,"Domain Tennis Centre","Tasmania","Tasmania","Tasmania","","Australia","https://play.tennis.com.au/DomainTennisCentre",false
b28aa17b-73e5-41b4-931c-3844610fd6d7,"Doncaster Tennis Club","802 Doncaster Rd (enter via Athenaeum Way), Doncaster VIC","Doncaster","Doncaster","VIC","Australia","play.tennis.com.au/doncastertennisclub/Booking/BookByDate",false
336b6ad1-15a6-4653-98ce-fbf5ec4da6dd,"Donvale Tennis Club","36–82 Mitcham Rd, Donvale VIC","Donvale","Donvale","VIC","Australia","play.tennis.com.au/court-hire/DonvaleTennisClub",false
2cd6ea5f-739c-47c3-ac13-f7b9144d9439,"Doutta Galla Tennis Club","19–27 Royal Ave (Vin Jervis Reserve), Essendon North VIC","Essendon North","Essendon North","VIC","Australia","play.tennis.com.au/court-hire/DouttaGallaTennisClub",false
cf07a2c0-213c-4407-925d-2e604243f8f0,"East Preston Park Tennis Club","46 Newton St (T.A. Cochrane Reserve), Preston VIC","46 Newton St (T.A. Cochrane Reserve)","46 Newton St (T.A. Cochrane Reserve)","VIC","Australia","https://play.tennis.com.au/eastprestonparktennisclub",true
70e6ceba-55bd-4398-9c2a-c493e162372f,"Eastern Indoor Pickleball Club (Knoxfield)","1642 Ferntree Gully Rd, Knoxfield VIC","Knoxfield","Knoxfield","VIC","Australia","easternindoorpickleballclub.playbypoint.com",false
c42188a5-4a70-4be3-a7db-db943ce46d40,"Easton Park","Grove Street, Balmain NSW 2041","Balmain","Balmain","NSW","Australia","https://www.innerwest.nsw.gov.au/easton-park",false
25625899-1da4-4f87-a314-932a2496b237,"Eastside Tennis Centre","1 Court Avenue, Kingsford NSW 2032","Kingsford","Kingsford","NSW","Australia","https://www.tennisvenues.com.au/booking/eastside-tennis-centre",false
5a51975c-8972-4607-a521-af01bf0ee7c0,"Edgeworth Street Soccer Grounds","Corner Edgeworth & Bligh St, Warrane TAS 7018","Corner Edgeworth & Bligh St","Corner Edgeworth & Bligh St","TAS","Australia","https://www.ccc.tas.gov.au/explore/sportsgrounds-for-hire/",true
5f1ac2ae-46e0-484c-9e95-36483f0e4333,"Elphin Sports Centre","Racecourse Crescent, Launceston TAS 7250","Launceston","Launceston","TAS","Australia","https://www.elphinsportscentre.org.au/",false
b1dec29f-b73c-42d5-a843-03b43408f174,"Elsternwick Park Tennis & Pickleball Centre","464 St Kilda St, Brighton VIC","464 St Kilda St","St Kilda St","VIC","Australia","https://www.bayside.vic.gov.au/",true
81ca3c2a-d82f-42a1-8dbc-c39fc1bbc97f,"Erskineville Oval","Bridge Street, Erskineville NSW 2043","Erskineville","Erskineville","NSW","Australia","https://www.cityofsydney.nsw.gov.au/sports-facility-booking-services/book-sports-field",false
1adbe3d0-e85c-487f-9e48-c44eb732cf75,"Essendon Tennis Club","Clifton Park Reserve, Batman St, Essendon VIC 3040","Batman St","Batman St","VIC","Australia","https://play.tennis.com.au/court-hire/EssendonTennisClub",true
c407d17f-7d68-41c1-affc-56adee3040f4,"Fawkner Park Tennis Centre","65 Toorak Rd West, South Yarra VIC 3141","65 Toorak Rd West","65 Toorak Rd West","VIC","Australia","https://www.victennisacademy.com.au/book-a-court-fawkner-park/",true
aeef0f27-ce7b-4ab1-8e0a-f2424270fbb1,"Federal Park","Chapman Road, Annandale NSW 2038","Annandale","Annandale","NSW","Australia","https://www.cityofsydney.nsw.gov.au/sports-facility-booking-services/book-sports-field",false
af2e7203-0141-4104-a57a-6963fa21f865,"Fitzroy Tennis Club (Edinburgh Gardens)","100 St Georges Rd, Fitzroy North VIC","Fitzroy North","Fitzroy North","VIC","Australia","play.tennis.com.au/court-hire/FitzroyTennisClub",false
9206156a-2ae1-4c70-8408-2a8df4508e33,"Five Dock & Concord Oval Recreation Centres – Futsal","Five Dock / Concord NSW","Five Dock / Concord NSW","Five Dock / Concord NSW","NSW","Australia","https://www.canadabay.nsw.gov.au/recreation-centres",false
2de8017d-e9da-4807-b696-dfd91aa8d371,"Five Dock Leisure Centre","93 Park Road, Five Dock NSW 2046","Five Dock","Five Dock","NSW","Australia","https://www.fdlc.com.au/",false
f87a20c9-529b-47a2-8952-c979d671a833,"Five Dock Park Tennis Centre","Park Road, Five Dock NSW 2046","Five Dock","Five Dock","NSW","Australia","https://www.tennisvenues.com.au/booking/five-dock-tc",false
a4bf29c0-7ff3-4016-9040-fb32422743da,"Flagstaff Gardens Tennis Courts","309–311 William St, West Melbourne VIC","309–311 William St","– William St","VIC","Australia","https://activemelbourne.ymca.org.au/",true
4e089fb2-e0ce-4da1-9235-4f29062bf12b,"Football Queensland - Meakin Park","187 Meakin Rd, Slacks Creek QLD 4127","187 Meakin Rd","Meakin Rd","QLD","Australia","https://footballqueensland.com.au/facilities/",true
b64945c6-8ceb-4bdf-b1a9-01942d26399f,"Football Queensland - Nudgee Recreation Reserve","290 Elliott Rd, Nudgee QLD 4014","290 Elliott Rd","Elliott Rd","QLD","Australia","https://footballqueensland.com.au/facilities/",true
44f180b9-7ae3-4088-a02a-885fbad10df5,"Fraser Fives – Sydney Portugal Community Club","100 Marrickville Rd, Marrickville NSW 2204","100 Marrickville Rd","Marrickville Rd","NSW","Australia","https://fraserfives.spawtz.com/",true
bd7a095a-23f8-4a71-ad9d-c92ac168833f,"Fremantle Lawn Tennis Club","Fremantle WA","Fremantle WA","Fremantle WA","WA","Australia","https://www.tennisfreo.com.au/court-hire/",false
44835621-d789-4e68-8196-396f0745fa76,"Futsal Oz – Brunswick","407–409 Victoria St, Brunswick VIC","407–409 Victoria St","– Victoria St","VIC","Australia","https://futsaloz.com/",true
63e11f27-a8bd-4f3a-a80a-800975cd9094,"Futsal Oz – Mt Evelyn","42 Kirkbrae Ave, Mount Evelyn VIC","42 Kirkbrae Ave","42 Kirkbrae Ave","VIC","Australia","https://futsaloz.com/",true
9ae6cf37-d59f-449b-bf7c-b622e5a1eff4,"Futsal Oz – Thomastown","391 Settlement Rd, Thomastown VIC","391 Settlement Rd","Settlement Rd","VIC","Australia","https://futsaloz.com/",true
693799e4-da96-4d0f-a68a-82554705a997,"Geilston Bay Tennis Club","De Bomfords Ln, Geilston Bay TAS 7015","De Bomfords Ln","De Bomfords Ln","TAS","Australia","https://play.tennis.com.au/geilstonbaytennisclub/booking/bookbydate",true
39336ff9-72b2-46d3-bfe8-c6dbc860724d,"Gladstone Park","Darling Street, Balmain NSW 2041","Balmain","Balmain","NSW","Australia","https://www.innerwest.nsw.gov.au/gladstone-park",false
0e4e872e-570d-4007-8640-3105d30d3ab1,"Glenorchy City Tennis Club","8 Alcorso Drive, Berriedale TAS 7011","Berriedale","Berriedale","TAS","Australia","https://play.tennis.com.au/GlenorchyCityTennisClub/booking/bookbydate",false
0eec7d6a-b268-48eb-895b-578b8ac20b1c,"Gordon Recreation Ground Courts (KRG)","Werona Ave, Gordon NSW 2072","Werona Ave","Werona Ave","NSW","Australia","https://krg.bookable.net.au/venues/35/gordon-recreation-ground-tennis-courts",true
8abeb468-e533-4d76-b965-c303382a63eb,"Government House Tasmania Tennis Courts","7 Lower Domain Rd, Hobart TAS 7000","7 Lower Domain Rd","7 Lower Domain Rd","TAS","Australia","https://play.tennis.com.au/governmenthousetasmania/court-hire/book-by-date",true
8743f855-cda9-4da0-aabc-d4dcdb9fb371,"Greensborough Tennis Club","1 Diamond Creek Rd, Greensborough VIC","Greensborough","Greensborough","VIC","Australia","play.tennis.com.au/court-hire/GreensboroughTennisClubEast",false
79c7ece6-b303-4086-a0ca-a25b86c4388b,"Greystanes Sportsground Tennis","Merrylands Rd, Greystanes NSW 2145","Merrylands Rd","Merrylands Rd","NSW","Australia","https://play.tennis.com.au/greystanessportsgroundtenniscourts/Booking/BookByDate",true
a229e5b6-cc47-46e1-93b5-55eb1db85cba,"Gunyama Park Synthetic Sportsfield","Zetland Avenue, Zetland NSW 2017","Zetland","Zetland","NSW","Australia","https://www.cityofsydney.nsw.gov.au/venues-facilities/gunyama-park",false
c35ece08-76a3-459b-8e3c-39022ed45c1f,"Gunyama Park Synthetic Sportsfield (Zetland)","17 Zetland Ave, Zetland NSW 2017","17 Zetland Ave","17 Zetland Ave","NSW","Australia","https://cityofsydneyleisure.perfectmind.com/38044/OtherApps/BookMe4FacilityList/List?calendarId=5f78fff4-a926-41b3-8998-632fde89d9ad&embed=False&singleCalendarWidget=true&widgetId=889c326a-7987-4959-b068-08d67fb1ead2",true
5ec0f40c-13f6-485b-ad43-45413161df58,"Haberfield Tennis Centre","Dobroyd Parade, Haberfield NSW 2045","Haberfield","Haberfield","NSW","Australia","https://www.haberfieldtennis.com.au/",false
5088d962-cb98-4390-a4cd-718dba4ab70e,"Haberfield Tennis Centre “The Ark” – Pickleball","154A Hawthorne Pde, Haberfield NSW 2045","154A Hawthorne Pde","154A Hawthorne Pde","NSW","Australia","https://www.tennisvenues.com.au/booking/haberfield-tc",true
0907731b-3713-49c1-83e5-5ed412cd4d9a,"Hamlyn Park Tennis Club (Geelong)","22 Carey St, Hamlyn Heights VIC 3215","22 Carey St","22 Carey St","VIC","Australia","https://portal.bookcourt.com.au",true
4f4688f4-ca25-4585-badc-efb9cfc4fef2,"Hamlyn Park Tennis Club (Geelong)","Hamlyn Park, Calvert St, Hamlyn Heights VIC 3215","Calvert St","Calvert St","VIC","Australia","https://portal.bookcourt.com.au/court-bookings/hamlyn-park-tennis-club",true
96699c20-ff9a-4287-8001-11d4c6c564c7,"Hampton Tennis Club","5 Grenville St, Hampton VIC 3188","5 Grenville St","5 Grenville St","VIC","Australia","https://www.tennisvenues.com.au/booking/hampton-tennis-club",true
de74e290-b928-464c-9a3c-85a0174a9ec2,"Heffron Park Tennis Centre (Matraville)","417–439 Bunnerong Rd, Matraville NSW 2036","417–439 Bunnerong Rd","– Bunnerong Rd","NSW","Australia","https://play.tennis.com.au/heffronparktenniscentre",true
fcd9bd4c-219f-4dfc-8595-1db9e5979358,"Henley Park Synthetic Field (Enfield)","Shelley St, Enfield NSW 2136","Shelley St","Shelley St","NSW","Australia","https://www.burwood.nsw.gov.au/Community/Sport-and-Recreation/Henley-Park",true
760a69b8-4db2-455a-bbf8-88a15c66db7f,"Hensley Athletic Field","Dunc Gray Velodrome, Bass Hill NSW 2197","Bass Hill","Bass Hill","NSW","Australia","https://www.bankstown.nsw.gov.au/hensley-field",false
881f8641-bf4b-4750-9d93-876f78acc09d,"Home of the Matildas – State Football Centre","La Trobe Sports Precinct (Sports Dr), Bundoora VIC","La Trobe Sports Precinct (Sports Dr)","La Trobe Sports Precinct (Sports Dr)","VIC","Australia","https://www.footballvictoria.com.au/",true
d95a2691-bd43-4564-95fe-be1d8f995b26,"Howick Squash","41 Meadowland Drive, Manukau, 2014","Manukau","Manukau","","Australia","https://meadowlands.helloclub.com/",false
f46be433-fb8e-4179-a933-81fbb09c0292,"Hume Tennis & Community Centre","225 Marathon Blvd, Craigieburn VIC 3064","225 Marathon Blvd","Marathon Blvd","VIC","Australia","https://play.tennis.com.au/HumeTennisCommunityCentre",true
f651e29d-4c84-4491-88e5-d24e7921a767,"Hume Tennis & Community Centre (Craigieburn)","225 Marathon Blvd (cnr Newbury Blvd), Craigieburn VIC 3064","225 Marathon Blvd (cnr Newbury Blvd)","Marathon Blvd (cnr Newbury Blvd)","VIC","Australia","https://humetennis.com.au/book-a-court/",true
0f2bdbb5-9ee1-4abc-954a-ab087875e19a,"Hunters Hill Club – Tennis","12–20 Madeline St, Hunters Hill NSW 2110","12–20 Madeline St","12–20 Madeline St","NSW","Australia","https://www.huntershillclub.com.au/play",true
defbb381-3272-404b-a425-cf1cff609553,"Huon Valley PCYC","40 Wilmot Rd, Huonville TAS 7109","40 Wilmot Rd","40 Wilmot Rd","TAS","Australia","https://www.hobartpcyc.org.au/huon-valley-pcyc-book-online/",true
70587886-c0b5-426c-9b28-30d60605f3be,"Illawarra Tennis Centre (Rockdale)","89A Wolseley St, Bexley NSW 2207","89A Wolseley St","89A Wolseley St","NSW","Australia","https://www.tennisvenues.com.au/booking/rockdale-tc",true
5dc8ce91-e935-4278-8186-d9a4ce9fcec5,"InDeep Tennis (Darlinghurst)","1A Barcom Ave, Darlinghurst NSW 2010","1A Barcom Ave","1A Barcom Ave","NSW","Australia","https://www.indeep.com.au/book-online",true
c2f2b73a-2011-4216-9cc3-37ed7f4de749,"Infinity Tennis (Chandler)","773 Boston Rd, Chandler QLD 4155","773 Boston Rd","Boston Rd","QLD","Australia","https://infinitytennis.com.au/tennis-court-hire-brisbane/",true
5e6a4da4-7d9d-4ed1-9771-5e1940ecc430,"Intrinsic Sports Revesby","2B Brett Street, Revesby NSW 2212","Revesby","Revesby","NSW","Australia","https://intrinsicsports.com.au/",false
4e801f6c-c72b-48c5-8901-118c3a3a1bdc,"Island Bay Tennis & Squash Club","2 The Parade, Island Bay","2 The Parade","2 The Parade","","Australia","https://auth.helloclub.com/signin?response_type=code&amp;redirect_uri=https://islandbaytsc.helloclub.com/oAuthCallback&amp;state=7uqWa4su1Hx5elV3Hzo2D5yxE4Bq3F5H&amp;client_id=frello&amp;code_challenge=EBtHaZoM3sjvHqcdnBOSnF2z-1_VwvDY_hOXA1eGNto&amp;code_challenge_method=S256&amp;signup=false",true
f307a254-2549-4e71-a941-f1d1839db4f3,"John Cain Memorial Park Courts","281 Clarendon St (John Cain Park), Thornbury VIC","281 Clarendon St (John Cain Park)","Clarendon St (John Cain Park)","VIC","Australia","https://www.darebin.vic.gov.au/",true
7e792fa0-8f5c-480d-a2ec-bdb33d5354b5,"Johnson Park","New Canterbury Road, Dulwich Hill NSW 2203","Dulwich Hill","Dulwich Hill","NSW","Australia","https://www.innerwest.nsw.gov.au/johnson-park",false
8facb5b3-8df0-46e7-98ae-e0fda8a6dd9a,"Jubilee Oval","Jubilee Avenue, Carlton NSW 2218","Carlton","Carlton","NSW","Australia","https://www.georgesriver.nsw.gov.au/jubilee-oval",false
9f904cb1-403c-4cc5-8fe1-07bb69e4e95e,"Jubilee Park","Jubilee Avenue, Glebe NSW 2037","Glebe","Glebe","NSW","Australia","https://www.cityofsydney.nsw.gov.au/sports-facility-booking-services/book-sports-field",false
0d646e3f-f4a3-42cf-916c-3a6f06029668,"Kalkallo Recreation Reserve Tennis","45 Toyon Rd, Kalkallo VIC","Kalkallo","Kalkallo","VIC","Australia","play.tennis.com.au/court-hire/kalkallorecreationreserve",false
290c0b09-0500-4a0c-ac73-9f532d693b22,"Karingal Drive Tennis (Council)","118 Karingal Dr (Malcolm Blair Reserve), Greensborough VIC","Greensborough","Greensborough","VIC","Australia","play.tennis.com.au/court-hire/KaringalDriveTennisClub",false
4505029c-af6e-4f0d-acbc-35654850b6e5,"Karingal Drive Tennis Club","118 Karingal Dr (Malcolm Blair Reserve), Greensborough VIC","Greensborough","Greensborough","VIC","Australia","play.tennis.com.au/court-hire/KaringalDriveTennisClub",false
25a1627c-dcfe-45e4-9273-aa905c5dcde2,"Keilor East Tennis Club","115 Rachelle Rd, Keilor East VIC","Keilor East","Keilor East","VIC","Australia","play.tennis.com.au/court-hire/KeilorEastTennisClub",false
9ba81d3f-3835-450b-b4a1-e66cb0908ed7,"Keirle Park Tennis Centre (Manly)","277 Pittwater Rd, Manly NSW 2095","277 Pittwater Rd","Pittwater Rd","NSW","Australia","https://www.keirleparktennis.com.au/bookings",true
a6a9d757-a465-49ba-8706-b0202fd1d76c,"Kendall Village Green Courts (KRG)","Kendall St, West Pymble NSW 2073","Kendall St","Kendall St","NSW","Australia","https://krg.bookable.net.au/venues/37/kendall-village-green-tennis-courts",true
829a50b9-e831-4d14-acff-5fe454e6b7b6,"Keon Park Tennis Club","80 Hickford St (J.C. Donath Reserve), Reservoir VIC","80 Hickford St (J.C. Donath Reserve)","80 Hickford St (J.C. Donath Reserve)","VIC","Australia","https://play.tennis.com.au/keonparktennisclub",true
01991e28-0c1f-4908-a775-341657fb396e,"Kew East (Victoria Park) Tennis - Club","Adeney Ave (Victoria Park), Kew VIC","Kew","Kew","VIC","Australia","play.tennis.com.au/court-hire/KewTennisClub",false
0e392c73-9b57-439e-b3e6-40baa9156dc1,"Kew Tennis Club","45 Adeney Ave, Kew VIC","Kew","Kew","VIC","Australia","play.tennis.com.au/court-hire/KewTennisClub",false
ebeb0881-50d2-4de8-8f6e-bb409d2c8529,"KGV Recreation Centre – Futsal","15 Cumberland St, The Rocks NSW 2000","15 Cumberland St","15 Cumberland St","NSW","Australia","https://online.cityofsydney.nsw.gov.au/king-george-v/KGVBookings",true
95465e32-7e4d-495b-a2f7-65b0565143d9,"KGV Recreation Centre – Pickleball","15 Cumberland St, The Rocks NSW 2000","15 Cumberland St","15 Cumberland St","NSW","Australia","https://online.cityofsydney.nsw.gov.au/king-george-v/KGVBookings",true
06cee560-5ed1-4700-9ab0-871044759200,"Kialla Park Old Students Tennis Club","Kialla Park Recreation Reserve, Reserve St, Kialla VIC 3631","Reserve St","Reserve St","VIC","Australia","https://play.tennis.com.au/kiallaparkoldstudentstc/booking/bookbydate",true
4bf224dd-e8b6-418b-b55b-436fe5e89c26,"Kialla Park Tennis Club","Kialla Park Recreation Reserve, Reserve St, Kialla VIC 3631","Reserve St","Reserve St","VIC","Australia","https://play.tennis.com.au/KiallaParkOldStudentsTennisClub",true
2fc12c60-f31c-4f73-a57d-d58a89fbbd94,"Kikoff Football Alexandria","99 Mitchell Road, Alexandria NSW 2015","Alexandria","Alexandria","NSW","Australia","https://kikoff.com.au/alexandria",false
ca449a41-6afc-4fea-bb81-87a31efdb46c,"KIKOFF Harbord (Brookvale)","187 Harbord Rd, Brookvale NSW 2100","187 Harbord Rd","Harbord Rd","NSW","Australia","https://kikoff.com.au/5-aside-football-pitches/",true
f0881716-1337-4ef4-9bc1-fa525a37fb6e,"KIKOFF Lakemba","576A Punchbowl Rd, Lakemba NSW 2195","576A Punchbowl Rd","576A Punchbowl Rd","NSW","Australia","https://kikoff.com.au/5-aside-football-pitches/",true
95baa2c4-ff77-4ff5-b60f-3e4c2fd48d56,"Killara Park Tennis Courts (KRG)","Rosebery Rd, Killara NSW 2071","Rosebery Rd","Rosebery Rd","NSW","Australia","https://krg.bookable.net.au/venues/48/killara-park-tennis-courts",true
9ce57162-61be-460d-a23a-3303ecbe2eb1,"King George Park","Manning Road, Rozelle NSW 2039","Rozelle","Rozelle","NSW","Australia","https://www.innerwest.nsw.gov.au/king-george-park",false
7ba5b69a-bdb9-4dd4-bb36-7a524fcc5b12,"Kingsbury Tennis Club","1C Browning St (KW Joyce Reserve), Kingsbury VIC","1C Browning St (KW Joyce Reserve)","1C Browning St (KW Joyce Reserve)","VIC","Australia","https://play.tennis.com.au/kingsburytennisclub",true
a1c220fa-aaa7-4312-8daa-26283a2179cf,"Kingston Beach Oval","Recreation St, Kingston TAS 7050","Recreation St","Recreation St","TAS","Australia","https://www.kingborough.tas.gov.au/wp-content/uploads/2021/09/Casual-Sports-Ground-Usage-Application-Form.pdf",true
9188f4b2-ae22-4049-b160-d447e687f31a,"Kingston Pickleball Centre","38/107 Wells Rd, Chelsea Heights VIC","38/107 Wells Rd","38/ Wells Rd","VIC","Australia","https://kingstonpickleball.com.au",true
a77e02f4-636f-4f8d-9ec9-890e20dcf11c,"Kingston Tennis Club","Kingston View Dr, Kingston TAS 7051","Kingston View Dr","Kingston View Dr","TAS","Australia","https://play.tennis.com.au/kingstonTennisClub/legacy-booking?id=3b1efab1-5de8-4323-87a6-fdffe5b52e77",true
46dfd6ce-878f-4727-9663-519b5ca1d475,"Knox Regional Football Centre","291 George St, Wantirna South VIC","291 George St","George St","VIC","Australia","https://www.footballvictoria.com.au/",true
1f72792a-6b99-47e2-852b-3baba9ef7203,"Koo Wee Rup Tennis Centre","243 Rossiter Rd, Koo Wee Rup VIC","Koo Wee Rup","Koo Wee Rup","VIC","Australia","play.tennis.com.au/court-hire/KooWeeRupTennisCentre",false
dfa1d5fd-bab9-48a7-9230-4a34242abfd5,"KTP Sports Centre (East Hills) – Tennis","Sutar Ave, East Hills NSW 2213","Sutar Ave","Sutar Ave","NSW","Australia","https://ktpsports.com.au/",true
fdd0d086-7db4-4d16-a53b-dbfddd8dafe0,"KTP Sports Centre (Panania) – Tennis","Marco Ave, Panania NSW 2213","Marco Ave","Marco Ave","NSW","Australia","https://ktpsports.com.au/",true
831f0e3a-0d71-472d-9c3e-d42a114e7c1c,"La Trobe Sports Stadium (Bundoora)","La Trobe Sports Park, Plenty Rd, Bundoora VIC","Bundoora","Bundoora","VIC","Australia","latrobe.edu.au/sport/facilities/bundoora-sports-facilities/la-trobe-sports-park/la-trobe-sports-stadium",false
2cdf9713-c0e4-4ddb-aed2-ce7c8039b4b6,"Lane Cove Tennis Club","Central Park, Kenneth St, Longueville NSW 2066","Kenneth St","Kenneth St","NSW","Australia","https://tennisbcs.com.au/book-court/",true
1bc2e10d-f922-4ac5-9c49-7bf64a084baa,"Lane Cove West Tennis Club","Lloyd Rees Dr, Lane Cove West NSW 2066","Lloyd Rees Dr","Lloyd Rees Dr","NSW","Australia","https://play.tennis.com.au/lanecovewesttennisclub/Booking/BookByDate",true
ac88eda7-930f-40a0-9ce5-f0e27fed776c,"Latham Park Tennis Centre (South Coogee)","Henning Ave, South Coogee NSW 2034","Henning Ave","Henning Ave","NSW","Australia","https://lathamparktennis.com.au/court-hire/",true
3950bed2-e683-4a25-802d-18fee7c502d6,"Latrobe Tennis Club","207 Gilbert Street (corner Gilbert & Noone/Percival), Latrobe TAS 7307","Latrobe","Latrobe","TAS","Australia","https://play.tennis.com.au/latrobetennisclubtasmania",false
c65d1b51-e6ec-48b5-a706-c34fc44621f5,"Launceston Regional Tennis Centre","57 Racecourse Crescent, Launceston TAS 7250","Launceston","Launceston","TAS","Australia","https://play.tennis.com.au/LauncestonRegionalTennisCentre/Booking/BookByDate",false
a5719795-311a-421f-8dce-b8891d7a0ff6,"Laverton Park Tennis Club","Merton St (Laverton Park), Altona Meadows VIC","Altona Meadows","Altona Meadows","VIC","Australia","play.tennis.com.au/court-hire/LavertonParkTennisClub",false
169b16fe-e434-41e5-9bda-8bf7fd2c9baa,"Lawson Square Park Tennis Courts (Merrylands)","Price St, Merrylands NSW 2160","Price St","Price St","NSW","Australia","https://play.tennis.com.au/lawsonsquareparktenniscourts/Booking/BookByDate",true
23411790-7f4e-4c1a-b550-21a3138096a1,"Leichhardt Oval","Mary Street, Lilyfield NSW 2040","Lilyfield","Lilyfield","NSW","Australia","https://www.innerwest.nsw.gov.au/leichhardt-oval",false
cdf07ecd-9d75-467f-8b0e-0748ec4bdc60,"Level Up Pickleball","Westfield Knox (425 Burwood Hwy), Wantirna South VIC","Westfield Knox (425 Burwood Hwy)","Westfield Knox ( Burwood Hwy)","VIC","Australia","https://www.leveluppickleball.com.au",true
8d4b6b98-ec29-4e19-a704-9954e2a1b31d,"Lightwood Park Complex (Grounds 1","2 & 3)","2 & 3)","2 & 3)","","Australia","Soccer (outdoor)",true
8d3511a3-c502-4b7a-a326-643228c3901d,"Lindfield Soldiers Memorial Park Courts (KRG)","79A Tryon Rd, Lindfield NSW 2070","79A Tryon Rd","79A Tryon Rd","NSW","Australia","https://krg.bookable.net.au/venues/8/lindfield-soldiers-memorial-park-tennis-courts",true
eeb3bb3c-1a86-4c60-9d70-d88b66ff8858,"Lindisfarne Memorial Tennis Club","End of Park Rd, Lindisfarne TAS 7015","End of Park Rd","End of Park Rd","TAS","Australia","https://play.tennis.com.au/court-hire/LindisfarneTennisClub",true
09acafaa-fc47-4ca7-93ff-cad87d54856a,"Lindisfarne Tennis Club","Tasmania","Tasmania","Tasmania","","Australia","https://play.tennis.com.au/LindisfarneTennisClub",false
317e14d8-be69-4f6f-8b6e-d17ac34c0ed4,"Litis Stadium","41 Britannia Road, Leederville WA 6009","41 Britannia Road","41 Britannia Road","WA","Australia","https://www.spacetoco.com/space/litis-stadium",true
1b021c6b-1763-44e5-8422-7861303e9f93,"Logan Metro Sports & Events Centre","357 Browns Plains Rd, Crestmead QLD 4132","357 Browns Plains Rd","Browns Plains Rd","QLD","Australia","https://loganmetrosec.skedda.com/booking",true
417d1479-50ea-407d-a00c-dbb29dc717ad,"Longford Tennis Club","Tasmania","Tasmania","Tasmania","","Australia","https://play.tennis.com.au/LongfordTennisClub",false
1a802785-e8e4-4f01-97b4-b203d05fa9b4,"Lords Recreation Centre","Subiaco WA","Subiaco WA","Subiaco WA","WA","Australia","https://www.lords.com.au/court-bookings/sports-courts",false
d26d6836-28c4-41db-95fe-882948c1c6b3,"Loton Park Tennis Club","Cnr Lord Street and Bulwer Street, Perth WA 6000","Cnr Lord Street and Bulwer Street","Cnr Lord Street and Bulwer Street","WA","Australia","https://play.tennis.com.au/LotonParkTennisClub",true
d84ba87f-c5b3-47c1-95c5-8b5d2ba26cff,"Lucius Park","Spearwood WA","Spearwood WA","Spearwood WA","WA","Australia","https://www.spacetoco.com/space/spearwood-wa-lucius-park",false
7d9762cc-4d45-4ef7-a0bd-bd762088c6ac,"Lyne Park Tennis Centre","New South Head Road, Rose Bay NSW 2029","Rose Bay","Rose Bay","NSW","Australia","https://lyneparktennis.com.au/book-a-court",false
cbfe707d-c596-4656-b731-151e820ab190,"Maccabi WA Facilities","Perth WA","Perth WA","Perth WA","WA","Australia","https://maccabi.com.au/wa/members-wa/facility-hire/",false
9ba83cd2-d781-4a62-928c-9d14c7ba24fa,"Macquarie University Sports Fields","Ross Gwilliam Field, Macquarie Park NSW 2113","Ross Gwilliam Field","Ross Gwilliam Field","NSW","Australia","https://www.mq.edu.au/about/campus-services-and-facilities/sport/sports-fields",false
339dfe68-a68c-4668-bec0-e81906dfd3b7,"Mahon Park","Kellick Street, Waterloo NSW 2017","Waterloo","Waterloo","NSW","Australia","https://www.cityofsydney.nsw.gov.au/sports-facility-booking-services/book-sports-field",false
2ba61907-6f47-41b3-951d-a5db7c8b4e06,"Majors Bay Reserve – Synthetic Fields (Concord)","Concord NSW 2137","Concord NSW 2137","Concord","NSW","Australia","https://www.canadabay.nsw.gov.au/majors-bay-reserve",true
c2254e51-7b3a-4a33-b600-158d226eae2d,"Malpass Tennis (East Brisbane)","Heath Park, East Brisbane QLD 4169","Heath Park","Heath Park","QLD","Australia","https://malpasstennis.com.au/pickleball-court-hire/",false
e6656b75-d7fa-4eaa-a00e-064f75d66788,"Malvern Tennis Centre","43A Union St, Armadale VIC 3143","43A Union St","43A Union St","VIC","Australia","https://www.tennisvenues.com.au/booking/malvern-tc",true
b4c0f22e-da0e-41d7-ab36-ace7876bef2b,"Malvern Tennis Centre (Stonnington)","43A Union St, Armadale VIC 3143","43A Union St","43A Union St","VIC","Australia","https://www.netsports.com.au/book-a-court",true
a7014073-938d-4cdc-8f41-699510239db8,"Margaret Whitlam Recreation Centre","41 Flood Street, Bondi NSW 2026","Bondi","Bondi","NSW","Australia","https://www.waverley.nsw.gov.au/recreation/sports_fields/margaret_whitlam_recreation_centre",false
cf23df7d-87d6-429b-8fcb-95e6819432a2,"Maribyrnong Park Tennis Club","189 Holmes Rd, Moonee Ponds VIC","Moonee Ponds","Moonee Ponds","VIC","Australia","play.tennis.com.au/court-hire/maribyrnongparktennisclub",false
9e9efc5b-a7d4-4168-99a3-6c0725174631,"Marrickville District Lawn Tennis Club","33 Centennial Street, Marrickville NSW 2044","Marrickville","Marrickville","NSW","Australia","https://play.tennis.com.au/MarrickvilleDistrictLawnTennisClub/court-hire/book-by-date",false
61ba60b0-6e64-4130-b678-9abb7e26d878,"Marrickville Park","Illawarra Road, Marrickville NSW 2204","Marrickville","Marrickville","NSW","Australia","https://www.innerwest.nsw.gov.au/marrickville-park",false
5bff838a-93cd-4d2f-a8e5-f68c0d0ba37a,"Marrickville PCYC","308 Marrickville Road, Marrickville NSW 2204","Marrickville","Marrickville","NSW","Australia","https://www.pcycnsw.org.au/marrickville",false
4a0002d8-0356-4cb4-afdb-516eaf6c1aca,"Matchpoint Tennis – North Lakes","North Lakes State College, Joyner Cct, North Lakes QLD 4509","Joyner Cct","Joyner Cct","QLD","Australia","https://www.matchpoint.net.au/court-hire/",false
9c09feba-6f70-481b-a513-ba7bbe413762,"MCC Glen Iris Valley Tennis Club","260 High St Rd, Mount Waverley VIC","Mount Waverley","Mount Waverley","VIC","Australia","play.tennis.com.au/MCCGlenIrisValleyTennisClub/Booking/BookByDate",false
086e2eab-4ce1-431d-90a9-c985bcf2bd50,"Meercroft Park Sporting Complex","240 William Street (carpark via Bluff Road), Devonport TAS 7310","Devonport","Devonport","TAS","Australia","https://devonport.bookable.net.au/venues/10/meercroft-park",false
fbe786ce-256a-4b11-8e7c-554767a6af7f,"Melbourne Park (National Tennis Centre)","Olympic Blvd (Entrance D), Melbourne VIC 3000","Olympic Blvd (Entrance D)","Olympic Blvd (Entrance D)","VIC","Australia","https://tennisworld.perfectgym.com.au/ClientPortal2/#/",true
f07081b0-11ad-4007-9fa0-3273fe91fe9b,"Melbourne Sports & Aquatic Centre (MSAC) – Stadium Courts","30 Aughtie Dr, Albert Park VIC","30 Aughtie Dr","30 Aughtie Dr","VIC","Australia","https://msac.perfectgym.com.au/clientportal2",true
87927ac5-866b-4730-947d-37f0d5141048,"Melville Tennis Centre","Melville WA","Melville WA","Melville WA","WA","Australia","https://www.melvilletenniscentre.com.au/court-hire/",false
73972deb-d532-4df0-aa86-f274435922d6,"Michael Clarke Recreation Centre","Carnes Hill Marketplace, Carnes Hill NSW 2171","Carnes Hill","Carnes Hill","NSW","Australia","https://www.liverpool.nsw.gov.au/michael-clarke",false
67143156-e645-468d-86c5-27aa8058fcdf,"Middle Head Tennis Court (Mosman)","1110 Middle Head Rd, Mosman NSW 2088","1110 Middle Head Rd","Middle Head Rd","NSW","Australia","https://harbourtrust-events.bookable.net.au/#!/event-detail/MiddleHeadTennisCourt",true
c0b2ad65-af1a-45fa-8e31-88686b45df97,"Miller Park Tennis Club","Cnr Mountain Hwy & Liverpool Rd, Boronia VIC 3155","Cnr Mountain Hwy & Liverpool Rd","Cnr Mountain Hwy & Liverpool Rd","VIC","Australia","https://play.tennis.com.au/MillerParkTennisClub",true
6c625a2a-26b7-4b07-a5a8-8b8083698f5d,"Miller Park Tennis Club (Lane Cove North)","38A Mowbray Rd, Lane Cove North NSW 2066","38A Mowbray Rd","38A Mowbray Rd","NSW","Australia","https://play.tennis.com.au/millerparktennisclub/booking/bookbydate",true
b8198b6f-2d2e-4188-b714-d7c7ce62a617,"Mona Vale Tennis Club","Kitchener Park, Pittwater Rd, Mona Vale NSW 2103","Pittwater Rd","Pittwater Rd","NSW","Australia","https://www.monavaletennis.com.au/bookings",true
04ae9ce1-74cf-4914-9e5f-b9e9e31f5181,"Monash Sport – Clayton (Recreation Hall & Games Hall)","42 Scenic Blvd (Monash University Clayton), Clayton VIC","Clayton","Clayton","VIC","Australia","monash.edu/sport/facilities-and-court-hire/clayton",false
5afce6db-4b98-491f-b146-511b06ac39ca,"Montmorency Tennis Club","93 Para Rd (Montmorency Park), Montmorency VIC","Montmorency","Montmorency","VIC","Australia","play.tennis.com.au/montmorencytennisclub/court-hire/",false
8377cff8-3e4a-4822-b34c-d44b5ff5f7bb,"Montrose Tennis Courts (Glenorchy City Council)","Montrose, Glenorchy TAS","Glenorchy","Glenorchy","TAS","Australia","https://www.gcc.tas.gov.au/discover-glenorchy/venues-and-facilities/sporting-facilities/",false
54198ca8-2892-4377-9cd9-cd6f42abb03f,"Moonah Sports Centre (NFSRA)","17 Gormanston Rd, Moonah TAS 7009","17 Gormanston Rd","17 Gormanston Rd","TAS","Australia","https://nfsra.com.au/court-hire/",true
8926513d-9dae-41c2-9be4-0185e4bc4bce,"Moorabbin Indoor Sports (MITennis)","2/117 Cochranes Rd, Moorabbin VIC","Moorabbin","Moorabbin","VIC","Australia","mitennis.com.au",false
0224564f-f994-428b-be82-6863e3b2b797,"Morningside Tennis Centre","123 Beverley St, Morningside QLD 4170","123 Beverley St","Beverley St","QLD","Australia","https://www.tennisvenues.com.au/booking/morningside-tc",true
90cdb238-e557-4aa6-a573-0b01eda67ade,"Morona Avenue Reserve Courts (KRG)","Morona Ave, Roseville NSW 2069","Morona Ave","Morona Ave","NSW","Australia","https://krg.bookable.net.au/venues/41/morona-avenue-reserve-tennis-courts",true
47d20dda-14e0-4ee3-856c-32effe310027,"Mosman Lawn Tennis Club","2 Sinclair St, Mosman NSW 2088","2 Sinclair St","2 Sinclair St","NSW","Australia","https://www.tennisvenues.com.au/booking/mosman-lawn-tc",true
208ac7d5-f179-4420-9139-0b945430f66a,"Mosman Lawn Tennis Club","11 Gouldsbury Street, Mosman NSW 2088","Mosman","Mosman","NSW","Australia","https://www.mosmanlawntennis.com.au/book",false
c1e8b4c9-7d66-43c6-b4b1-e027aece730e,"Mount Annan Leisure Centre","Main Street, Mount Annan NSW 2567","Mount Annan","Mount Annan","NSW","Australia","https://www.camden.nsw.gov.au/mount-annan",false
ac75f323-71f2-4601-90dc-70d497262985,"Mt Lawley Tennis Club","Mt Lawley WA","Mt Lawley WA","Mt Lawley WA","WA","Australia","https://playtennisperth.com.au/book-a-court",false
6d89c02b-be24-4374-a0a7-0251476473dd,"Mt Lawley Tennis Club - Pickleball","Mt Lawley WA","Mt Lawley WA","Mt Lawley WA","WA","Australia","https://www.mtlawleytennis.com.au/play/pickleball/",false
1d1599ff-6a34-4854-aa4f-c43898706d60,"Murdoch University - Indoor Courts","Murdoch University, Perth WA","Murdoch University","Murdoch University","WA","Australia","https://www.murdoch.edu.au/murdoch-active/facilities-and-hiring",false
c98fcc62-b614-4ee2-9d33-c7b51e7c5870,"Muritai Tennis Club","358 Muritai Road, Eastbourne, Lower Hutt, 5013","Lower Hutt","Lower Hutt","","Australia","https://clubspark.kiwi/Content/Icons/favicon.ico?c=en-GB&amp;v=638900865730000000-257000",false
2e9fe1ff-0602-4ffe-b648-3afeb4df00b1,"Murrumbeena Tennis Club","2–4 Bute St, Murrumbeena VIC","Murrumbeena","Murrumbeena","VIC","Australia","play.tennis.com.au/murrumbeenatennisclub/Booking/BookByDate",false
14e5483c-3b64-4330-9175-8978a25d93fb,"Neutral Bay Club – Tennis","3 Westleigh St, Neutral Bay NSW 2089","3 Westleigh St","3 Westleigh St","NSW","Australia","https://neutralbayclub.com/court-hire/",true
30427815-07b8-4cf2-89c4-4d31301ba666,"New Farm Park Tennis Courts","1042 Brunswick St, New Farm QLD 4005","1042 Brunswick St","Brunswick St","QLD","Australia","https://communify.org.au/series/tennis-at-new-farm-park/",true
f70c3e33-c1cd-4988-8c69-356cbb613112,"New Town Catholic Tennis Club","Tasmania","Tasmania","Tasmania","","Australia","https://play.tennis.com.au/newtowncatholictennisclub/Account/SignIn?returnUrl=https%3a%2f%2fplay.tennis.com.au%2fnewtowncatholictennisclub%2fBooking%2fBookByDate",false
77d6e0f0-3499-4fbf-8f7e-e207aecef9fd,"Newport Community Centre (Tennis)","11–13 The Boulevarde, Newport NSW 2106","11–13 The Boulevarde","11–13 The Boulevarde","NSW","Australia","https://www.northernbeaches.nsw.gov.au/things-to-do/recreation-area/newport-community-centre",true
0c51a6d7-dfa7-47b6-b43e-388a4d66f077,"Newstead Tennis & Squash Centre","49-63 Olive Street, Newstead TAS 7250","Newstead","Newstead","TAS","Australia","https://play.tennis.com.au/opencourtsessions/newsteadtennisandsquashcentre",false
99bff70f-ddbb-4632-ae9c-fc6055f2332c,"North Narrabeen Community & Tennis Centre","7 Boondah Road, North Narrabeen NSW 2101","North Narrabeen","North Narrabeen","NSW","Australia","https://www.northernbeaches.nsw.gov.au/things-to-do/recreation-area/north-narrabeen-community-tennis-centre",false
c9cf1b19-8947-4ec5-95be-e95eda756b79,"North Park Tennis Club","Corner Elliot Ave & Flemington Rd, North Melbourne VIC","North Melbourne","North Melbourne","VIC","Australia","play.tennis.com.au/court-hire/NorthParkTennisClub",false
e5f2d857-cf58-400d-921b-090c062d1eeb,"North Sydney Tennis Centre","1 Little Alfred Street, North Sydney NSW 2060","North Sydney","North Sydney","NSW","Australia","https://www.northsydneytennis.com.au/book",false
05674e4c-0d60-4a9a-bba3-5db7d4f786c9,"Northcote Tennis Courts (McDonell Park)","180 Victoria Rd, Northcote VIC","180 Victoria Rd","Victoria Rd","VIC","Australia","https://play.tennis.com.au/",true
a419a50a-671a-476c-90fd-026670dd8028,"Nunawading Tennis Club","6 Lane St (Nicoll Park), Blackburn North VIC","Blackburn North","Blackburn North","VIC","Australia","play.tennis.com.au/nunawadingtennisclub/booking/bookbydate",false
8d754d8e-9339-4e9d-aac4-37c69baec83d,"Oakleigh Tennis Club (Caloola Reserve)","Caloola Reserve, 85 Atkinson St, Oakleigh VIC 3166","85 Atkinson St","85 Atkinson St","VIC","Australia","https://play.tennis.com.au/oakleightennisclub/booking/bookbydate",true
f4f2b5fe-af87-47e4-994a-f3807666eb10,"Oakleigh Tennis Club (Caloola)","Park Rd, Oakleigh VIC 3166","Park Rd","Park Rd","VIC","Australia","https://play.tennis.com.au/OakleighTennisClub",true
a8bbf7ae-fa19-4cfd-9b69-b8e60cdef0d2,"Padel Brisbane","200 Settlement Rd, The Gap QLD 4061","200 Settlement Rd","Settlement Rd","QLD","Australia","https://padelbrisbane.co/book-a-court/",true
525f0a0a-baab-4598-be1e-3fdc0e8af744,"Parramatta City Tennis","Victoria Road, Parramatta NSW 2150","Parramatta","Parramatta","NSW","Australia","https://play.tennis.com.au/ParramattaCityTennis",false
81d75c84-795b-44f0-b96e-6690c736af16,"PCYC Northern Beaches (Dee Why)","40 Kingsway, Dee Why NSW 2099","Dee Why","Dee Why","NSW","Australia","https://www.pcycnsw.org.au/northern-beaches",false
6f916076-8b44-4a73-b766-095bec28e4cd,"Peakhurst Park Synthetic (Georges River)","Peakhurst NSW 2210","Peakhurst NSW 2210","Peakhurst","NSW","Australia","https://www.georgesriver.nsw.gov.au/Community/Facilities-and-Venues/Sportsgrounds/Peakhurst-Park",true
9e322dc5-9e17-4369-befc-2a6256f2f6eb,"Perry Park Recreation Centre","1B Maddox Street, Alexandria NSW 2015","Alexandria","Alexandria","NSW","Australia","https://www.cityofsydney.nsw.gov.au/venues-facilities/perry-park-recreation-centre",false
dcf53b58-21c5-4274-b487-f791978d7837,"Perth Soccer Club - Dorrien Gardens","Dorrien Gardens, Perth WA","Dorrien Gardens","Dorrien Gardens","WA","Australia","https://www.perthsc.com.au/facility-hire/",false
738df749-fc28-4991-96fe-82ad552d3c05,"Pickle Point Milperra","Milperra Sports Complex, Milperra NSW 2214","Milperra","Milperra","NSW","Australia","https://www.picklepoint.com.au/",false
a08ea2d7-f0f0-44a9-92a4-a5c24437fbe0,"Pickleball Palace","2 Attercliffe Ave, Pascoe Vale VIC","2 Attercliffe Ave","2 Attercliffe Ave","VIC","Australia","https://pickleballpalace.com.au",true
29a360d4-7d8d-4e18-afd0-3673ab9e6f74,"PicklePlay (Bentleigh East)","1 South Drive (Kingston Centre), Bentleigh East VIC","1 South Drive (Kingston Centre)","1 South Drive (Kingston Centre)","VIC","Australia","https://www.pickleplay.com.au",true
704efe58-ec17-4f4d-867a-bd5df03d515a,"Pioneers Memorial Park","Balmain Road, Leichhardt NSW 2040","Leichhardt","Leichhardt","NSW","Australia","https://www.innerwest.nsw.gov.au/pioneers-park",false
a049580d-ecab-4603-bccb-b3fc27a910e7,"Play Pickle Alexandria","Alexandria Park Community School, Alexandria NSW 2015","Alexandria","Alexandria","NSW","Australia","https://www.playpickle.com.au/locations",false
12afc5d2-9eb5-43b6-84bb-365e2e7819d2,"Powlett Reserve Tennis Centre","Cnr Albert St & Simpson St, East Melbourne VIC 3002","Cnr Albert St & Simpson St","Cnr Albert St & Simpson St","VIC","Australia","https://www.victennisacademy.com.au/book-a-court-powlett-reserve/",true
7b124e3f-9a15-402e-9587-9b4f919e1ded,"Prince Alfred Park","Chalmers Street, Surry Hills NSW 2010","Surry Hills","Surry Hills","NSW","Australia","https://www.cityofsydney.nsw.gov.au/sports-facility-booking-services/book-sports-field",false
405ef66f-0682-42dd-aa02-db84b4b7f67b,"Prince Alfred Park – City Community Tennis","105 Chalmers St, Surry Hills NSW 2010","105 Chalmers St","Chalmers St","NSW","Australia","https://play.tennis.com.au/citycommunitytennisprincealfredpark/Booking/BookByDate",true
65568f15-f7f3-4137-8ed6-820b626ae18d,"Princes Gardens Tennis Courts","8 Little Chapel St, Prahran VIC 3181","8 Little Chapel St","8 Little Chapel St","VIC","Australia","https://play.tennis.com.au/PrincesGardensTennisCourts",true
16d73456-ba64-4fa3-b088-bb6666316c2f,"Princes Gardens Tennis Courts (Prahran)","8 Little Chapel St, Prahran VIC 3181","8 Little Chapel St","8 Little Chapel St","VIC","Australia","https://play.tennis.com.au/court-hire/PrincesGardensTennisCourts",true
0752f23c-e77b-4328-bb0f-ff7abe8f5452,"Princes Hill Tennis Club","208 Macpherson St (Princes Park), Carlton North VIC","208 Macpherson St (Princes Park)","Macpherson St (Princes Park)","VIC","Australia","https://play.tennis.com.au/princeshilltennisclub",true
89f45ee7-0258-42a1-b40b-da2cfe95f0a8,"Queensland Tennis Centre","190 King Arthur Tce, Tennyson QLD 4105","190 King Arthur Tce","King Arthur Tce","QLD","Australia","https://www.queenslandtenniscentre.com.au/",true
90bac1df-5098-4ee4-a510-1011555ad782,"QUT Indoor Sports Court (Kelvin Grove)","Level 2, 44 Musk Avenue (U Block), Kelvin Grove QLD 4059","44 Musk Avenue (U Block)","44 Musk Avenue (U Block)","QLD","Australia","https://qutsport.perfectmind.com/35049/Clients/BookMe4FacilityList/List?calendarId=888aa04f-94a2-417f-a097-524e972b8a8c&embed=False&singleCalendarWidget=true&widgetId=76440e28-633d-4fd6-97d8-8a89fa805950",true
cad1e1ba-29aa-47d9-82fb-4c1c92fd8070,"Reabold Tennis Club","Floreat WA","Floreat WA","Floreat WA","WA","Australia","https://reaboldtennis.com.au/tennis-court-hire/",false
1d944e7f-46e3-40b0-89ca-a069ea2430c3,"Rebound Stadium","23 Foster St, Newmarket QLD 4051","23 Foster St","23 Foster St","QLD","Australia","https://www.reboundstadium.com.au/book-online",true
0f0cc08a-a8ea-41a5-bc48-80d7cca0267c,"Redfern Park","Elizabeth Street, Redfern NSW 2016","Redfern","Redfern","NSW","Australia","https://www.cityofsydney.nsw.gov.au/sports-facility-booking-services/book-sports-field",false
dc4a96c3-42a7-443b-bf83-e6309ac5e15d,"Reg Bartley Oval","Bowden Street, Rushcutters Bay NSW 2011","Rushcutters Bay","Rushcutters Bay","NSW","Australia","https://www.cityofsydney.nsw.gov.au/sports-facility-booking-services/book-sports-field",false
f6a4e55d-bc8c-40ef-9564-c7bde94d4d02,"Regent Tennis Club","2A Clyde St (GE Robinson Reserve), Reservoir VIC","2A Clyde St (GE Robinson Reserve)","2A Clyde St (GE Robinson Reserve)","VIC","Australia","https://play.tennis.com.au/regenttennisclub",true
355eaf89-5c5e-43eb-95b7-7426680a578d,"Research Tennis Club","1459B Main Rd (Research Park), Research VIC","Research","Research","VIC","Australia","play.tennis.com.au/researchtennisclub/Booking/BookByDate",false
4abd96eb-f8c0-42c1-bd45-5be38af06eed,"Riverside Tennis Club (Tasmania)","2 Eden Street, Riverside TAS 7250","Riverside","Riverside","TAS","Australia","https://play.tennis.com.au/riversideTennisClub",false
f94dd26f-de0f-4d99-aa9c-f4b0207c1f39,"RMIT Sports Centre (Bundoora) – Outdoor Futsal Pitches","203 McKimmies Rd (RMIT Bundoora), Bundoora VIC","Bundoora","Bundoora","VIC","Australia","rmit.edu.au/about/our-locations-and-facilities/facilities/rmit-sports-centre/precinct-facilities",false
e611a0af-6d01-4d9e-9f2b-acbc2cb2a0e7,"Robert Pymble Park Courts (KRG)","4 Myrtle St, Pymble NSW 2073","4 Myrtle St","4 Myrtle St","NSW","Australia","https://krg.bookable.net.au/venues/54/robert-pymble-park-tennis-courts",true
5203d6d3-72e0-4d5c-b5a6-47c9aaf4c338,"Robson Park","Haberfield Road, Haberfield NSW 2045","Haberfield","Haberfield","NSW","Australia","https://www.innerwest.nsw.gov.au/robson-park",false
6ae772fa-186e-44fd-a4b1-fa7895093c18,"Robyn Webster Sports Centre","46 Holbeach Avenue, Tempe NSW 2044","Tempe","Tempe","NSW","Australia","https://www.innerwest.nsw.gov.au/robyn-webster",false
ac782f42-4287-4938-9bd5-a2da8360d11f,"Rosanna Tennis Club","2 Strasbourg Rd, Rosanna VIC","Rosanna","Rosanna","VIC","Australia","play.tennis.com.au/court-hire/RosannaTennisClub",false
8b1be96c-8021-4ebd-8627-00f37ebbaa63,"Rosebery Park","Dalmeny Avenue, Rosebery NSW 2018","Rosebery","Rosebery","NSW","Australia","https://www.cityofsydney.nsw.gov.au/sports-facility-booking-services/book-sports-field",false
9703b3e1-a215-489a-a636-75dcc4478f48,"Roseville Lawn Tennis Club","7A Clanville Rd, Roseville NSW 2069","7A Clanville Rd","7A Clanville Rd","NSW","Australia","https://play.tennis.com.au/rosevillelawntennisclub/Booking/BookByDate",true
cda847af-78a8-4245-ad94-eb76262ab62e,"Roseville Park – Clanville Rd Courts (KRG)","60A Clanville Rd, Roseville NSW 2069","60A Clanville Rd","60A Clanville Rd","NSW","Australia","https://krg.bookable.net.au/venues/112/roseville-park-clanville-road-roseville",true
46c9ff8b-93b9-4f28-8ba8-9042fc078a87,"Rosny Park Tennis Club","18 Bastick St, Rosny Park TAS 7018","18 Bastick St","18 Bastick St","TAS","Australia","https://play.tennis.com.au/rosnyparktennisclub/Booking",true
f36be5c6-a2ee-4b71-9b77-e1de180be724,"Rosswood Tennis Club","112A Somerset Dr (Tirhatuan Park), Dandenong North VIC","Dandenong North","Dandenong North","VIC","Australia","play.tennis.com.au/court-hire/RosswoodTennisClub",false
1a1f9102-5ab0-431f-96df-cff17e280d2e,"Roy Emerson Tennis Centre","315 Milton Rd, Milton QLD 4064","315 Milton Rd","Milton Rd","QLD","Australia","https://emersontennis.com.au/",true
75510a8b-3af0-4925-bbf1-f83abd279d67,"Royal Park Tennis Club","Cnr The Avenue & Park St, Parkville VIC 3052","Cnr The Avenue & Park St","Cnr The Avenue & Park St","VIC","Australia","https://play.tennis.com.au/RoyalParkTennisClub",true
1ed744a6-d49e-4170-a05b-8d4987b59c42,"Royal Park Tennis Club","333 The Avenue (cnr Park St), Parkville VIC 3052","333 The Avenue (cnr Park St)","The Avenue (cnr Park St)","VIC","Australia","https://play.tennis.com.au/royalparktennisclub/court-hire",true
30702eae-f40b-48bd-a56f-5842a024fe9f,"Royal Pickle (Carrum Downs)","16/684–700 Frankston–Dandenong Rd, Carrum Downs VIC","16/684–700 Frankston–Dandenong Rd","16/– Frankston–Dandenong Rd","VIC","Australia","https://royalpickle.com.au",true
5d73973c-dbee-485d-a84e-7ebb499b6bd0,"Royal Rehab Ryde – Sports Courts","235 Morrison Rd, Ryde NSW 2112","235 Morrison Rd","Morrison Rd","NSW","Australia","https://www.rrtc.tennisbcs2.com.au/Applns/Bookings/Bookdisp2.aspx",true
17b3dd2a-cee9-4231-bf7c-a0a1b1501863,"Rushcutters Bay Park Tennis","New Beach Road, Rushcutters Bay NSW 2011","Rushcutters Bay","Rushcutters Bay","NSW","Australia","https://www.citycommunitytennis.com.au/locations",false
c4cfecf6-f117-4e48-943b-9d801c2173b4,"Rushcutters Bay Park Tennis Courts","Waratah Ave, Rushcutters Bay NSW 2011","Waratah Ave","Waratah Ave","NSW","Australia","https://play.tennis.com.au/rushcuttersbayparktenniscourts/Booking/BookByDate",true
62b360fa-6e22-4bd6-bb0b-feb33104159b,"Ryde Aquatic Leisure Centre","504 Victoria Road, Ryde NSW 2112","Ryde","Ryde","NSW","Australia","https://www.ryde.nsw.gov.au/ralc",false
52b7fb74-b407-4c20-8940-c1e28f8e6d45,"Ryde Indoor Sports Centre – Pickleball","913 Victoria Rd, West Ryde NSW 2114","913 Victoria Rd","Victoria Rd","NSW","Australia","https://rydeindoor.com.au/court-hire/",true
17f95d20-0f68-4cc7-b75f-93735fc74ec4,"Ryde Tennis Centre","Corner Karen Moras Dr, Potts & Weaver Sts, Ryde NSW 2112","Potts & Weaver Sts","Potts & Weaver Sts","NSW","Australia","https://www.tennisvenues.com.au/booking/ryde-tennis-centre",true
b6477bb5-cfb8-4fed-aa4c-716a40ed7a05,"Sandgate Tennis Centre","83 Board St, Deagon QLD 4017","83 Board St","83 Board St","QLD","Australia","https://play.tennis.com.au/SandgateAndDistrictYouthTennisAssociation/booking/bookbydate",true
a076ae16-1022-48c2-a24f-d99cedded200,"Scarborough Park Sports Centre – Pickleball","7 Hawthorne St, Ramsgate Beach NSW 2217","7 Hawthorne St","7 Hawthorne St","NSW","Australia","https://pickleballnsw.org/play/court-hire/",true
67f184c5-f08f-4eec-87fc-b62c28d7498b,"Scarborough Park Tennis","Mitchell Street, Glebe NSW 2037","Glebe","Glebe","NSW","Australia","https://www.citycommunitytennis.com.au/locations",false
e6218448-f3ed-4e53-a439-683a026222b2,"Scoresby Tennis Centre","752 Stud Rd (Scoresby Recreation Reserve), Scoresby VIC","Scoresby","Scoresby","VIC","Australia","play.tennis.com.au/court-hire/ScoresbyTennis",false
7f31f8bb-44c4-4577-b648-8c5e707758c9,"Shaw Park Tennis Centre","128 Shaw Rd, Wooloowin QLD 4030","128 Shaw Rd","Shaw Rd","QLD","Australia","https://www.tennisvenues.com.au/booking/shaw-park-tc",true
c48b0c8b-5071-46da-84fc-2e1405c10999,"Sherburd Oval","1 Brightwater Rd, Blackmans Bay TAS 7052","1 Brightwater Rd","1 Brightwater Rd","TAS","Australia","https://www.kingborough.tas.gov.au/recreation-facilities/sports-grounds/",true
c2a7f34d-6701-4717-b7b5-f2539cd59e5a,"Snape Park Tennis Centre (Maroubra)","Snape Park, Maroubra NSW 2035","Snape Park","Snape Park","NSW","Australia","https://www.oz-tennis.com/",false
2a3dd274-94c0-48f5-9014-4d2dcb8895a8,"Sorell Tennis Club","Tasmania","Tasmania","Tasmania","","Australia","https://play.tennis.com.au/SorellTennisClub",false
807ad137-1bcf-4992-bf70-41c39bef68dd,"South Coogee Reserve","Munster WA","Munster WA","Munster WA","WA","Australia","https://www.spacetoco.com/space/munster-wa-south-coogee-reserve-2",false
366f290d-0e04-40ba-8c23-0bd67d6a74e0,"South Hobart Oval","6 Washington St, South Hobart TAS 7004","6 Washington St","6 Washington St","TAS","Australia","https://www.hobartcity.com.au/Community/Parks-sportsgrounds-and-reserves/Sportsgrounds/Sportsground-bookings",true
8166af38-61d5-4e5c-b787-af8bf8b2343d,"South Perth Tennis Centre","107 Murray Street, Como WA 6152","107 Murray Street","Murray Street","WA","Australia","https://play.tennis.com.au/southperthtenniscentre/Booking",true
4a0d4504-ebbc-45d9-aa87-4ff9b4176308,"South Pine Indoor Sports Centre (Brendale)","620 South Pine Rd, Brendale QLD 4500","620 South Pine Rd","South Pine Rd","QLD","Australia","https://www.southpineindoorsports.com.au/",true
3c7382a0-8342-4c24-bd15-e5e8090bee2f,"Southend Tennis Centre","50 Heffron Road, Maroubra NSW 2035","Maroubra","Maroubra","NSW","Australia","https://southendtenniscentre.com.au/",false
c801b3e7-b0c4-409b-85fd-814b26a840b9,"Sports Parc (Alexandria) – Pickleball","75 O’Riordan St, Alexandria NSW 2015","75 O’Riordan St","75 O’Riordan St","NSW","Australia","https://sportsparc.com.au/court-hire",true
4fcf5494-9faf-410a-9373-01e5f38ae5cb,"Spring Hill Tennis Centre","400 Gregory Terrace, Spring Hill QLD 4000","400 Gregory Terrace","Gregory Terrace","QLD","Australia","https://clients.mindbodyonline.com/ASP/su1.asp?studioid=491530",true
9d336902-f878-4630-839f-40c7c2893ca1,"Springers Leisure Centre (Keysborough)","400 Cheltenham Rd, Keysborough VIC","Keysborough","Keysborough","VIC","Australia","springersleisurecentre.com.au",false
7daaec82-0b87-4612-81e9-2223f17894cc,"Springvale Indoor Sports Centre","546 Springvale Rd, Springvale VIC","546 Springvale Rd","Springvale Rd","VIC","Australia","https://www.springvaleindoorsports.com.au/",true
a8dca275-39c3-4465-b041-7ccb9a643225,"St Albans East Tennis Club","Corner Main Rd East & Percy St (Errington Reserve), St Albans VIC","St Albans","Corner Main Rd East & Percy St (Errington Reserve)","VIC","Australia","play.tennis.com.au/StAlbansEastTennisClub/Booking",true
0510eef2-e842-466f-a913-e634c2637663,"St Ives Village Green Courts (KRG)","Memorial Ave, St Ives NSW 2075","Memorial Ave","Memorial Ave","NSW","Australia","https://krg.bookable.net.au/venues/50/st-ives-village-green-tennis-courts",true
6abcadb6-8193-4fb2-b577-f58fa6a41047,"St Mary's Tennis Club (Geelong)","Thomson Recreation Reserve, Godfrey St, Thomson VIC 3219","Godfrey St","Godfrey St","VIC","Australia","https://play.tennis.com.au/stmarysgeelongtennisclub/CourtHire",true
85db6065-3926-4174-a29e-7c9295da23e4,"St Mary’s Tennis Club (Geelong)","18-20 Little Myers St, Geelong VIC 3220","18-20 Little Myers St","18-20 Little Myers St","VIC","Australia","https://portal.bookcourt.com.au/?from=cfd3668f0f4e4756a6e0e024298e4a07",true
3be99320-6ca9-4b8b-a1aa-1eb649f20609,"State Tennis Centre","282 Victoria Park Drive, Burswood WA 6100","282 Victoria Park Drive","Victoria Park Drive","WA","Australia","https://play.tennis.com.au/StateTennisCentre",true
b398d6d0-3270-471f-ab7f-9de0bc86ca27,"Strathfield Sports Club Tennis","11 Florence Street, Strathfield NSW 2135","Strathfield","11 Florence Street","NSW","Australia","https://strathfieldsportsclub.com.au/tennis/book-a-court/",true
5a2ea7e5-3580-43de-a8c3-1f3ab45d15d0,"Sunbury Lawn Tennis Club","Cnr Ligar & Cornish Sts, Sunbury VIC","Sunbury","Sunbury","VIC","Australia","play.tennis.com.au/court-hire/SunburyLawnTennisClub",false
a3a883d6-ceee-49b4-986d-44cd11a7050d,"Sunshine Tennis Club (Howrah)","11A Howrah Rd, Howrah TAS 7018","11A Howrah Rd","11A Howrah Rd","TAS","Australia","https://play.tennis.com.au/sunshinetennisclub",true
a2ce9350-f5b1-43d5-9307-13a61e5f31ab,"Super Futsal (Acacia Ridge)","1391 Beaudesert Rd, Acacia Ridge QLD 4110","1391 Beaudesert Rd","Beaudesert Rd","QLD","Australia","https://www.superfutsal.com.au/court-hiring",true
64339bcc-0d56-410d-b1e9-7ff0e9fd2bfb,"Super Futsal (Carina)","150 Fursden Rd, Carina QLD 4152","150 Fursden Rd","Fursden Rd","QLD","Australia","https://www.superfutsal.com.au/court-hiring",true
7e42c4f6-5982-46aa-8da7-12bb68931cba,"Sutherland Waratah Tennis Courts","Waratah Park, Sutherland NSW 2232","Sutherland","Sutherland","NSW","Australia","https://play.tennis.com.au/sutherlandwaratahtenniscourts",false
4b064b45-3e40-442b-b085-990a946ebdb9,"Swing & Serve","906 Plenty Rd (Bundoora Park), Bundoora VIC","906 Plenty Rd (Bundoora Park)","Plenty Rd (Bundoora Park)","VIC","Australia","https://swingandserve.com.au",true
97b8519d-b2db-4542-8741-f4b168179464,"Sydney Football Centre","Edwin Flack Avenue, Sydney Olympic Park NSW 2127","Sydney Olympic Park","Sydney Olympic Park","NSW","Australia","https://www.sydneyolympicpark.com.au/sydney-football-centre",false
7682b738-a032-4b0d-b91e-ac16005cf02f,"Sydney Football Centre (Olympic Park)","Sydney Olympic Park NSW 2127","Sydney Olympic Park NSW 2127","Sydney Olympic Park","NSW","Australia","https://www.sydneyfootballcentre.com.au/about",true
dc2171a1-0a82-4cf2-af08-56c07c835d84,"Sydney Olympic Park Sports Halls","Olympic Blvd, Sydney Olympic Park NSW 2127","Olympic Blvd","Olympic Blvd","NSW","Australia","https://www.sydneyolympicpark.com.au/tennis-coaching/book-online",true
4beac100-3260-456c-bd23-35a0d599fc3f,"Sydney Park","Sydney Park Road, Alexandria NSW 2015","Alexandria","Alexandria","NSW","Australia","https://www.cityofsydney.nsw.gov.au/sports-facility-booking-services/book-sports-field",false
f29e91ea-8e6f-4460-bf73-f143c8bd7503,"Sydney Racquet Club (Moore Park / EQ)","17 Park Rd North, Moore Park NSW 2021","17 Park Rd North","17 Park Rd North","NSW","Australia","https://playtomic.com/clubs/sydney-racquet-club",true
48f144e7-039c-4fc5-b173-667e4a623997,"Sydney Uni Sport – Tennis Courts","Darlington Rd, Darlington NSW 2008","Darlington Rd","Darlington Rd","NSW","Australia","https://susf.com.au/tennis-court-hire/",true
51ba77c6-5525-43fb-a416-f96faa864dd0,"Sylvania Waters Tennis Centre","Belgrave Esplanade, Sylvania Waters NSW 2224","Sylvania Waters","Sylvania Waters","NSW","Australia","https://www.swtctennis.com.au/",false
3a16587e-954a-4d53-a2ce-438fafe70674,"Taroona Tennis Club","Chiton Chase (off Nubeena Crescent), Taroona TAS 7053","Chiton Chase (off Nubeena Crescent)","Chiton Chase (off Nubeena Crescent)","TAS","Australia","https://play.tennis.com.au/taroonatennisclub/court-hire/book-by-date",false
81a009b7-2071-4aac-8630-d3e062036984,"Tauranga Bridge Club","252 Ngatai Road, Otūmoetai","252 Ngatai Road","Ngatai Road","","Australia","https://taurangabridge.helloclub.com/",true
83e5f6af-b30f-485b-a3b5-c1bed0ff442d,"Tempe Reserve","Holbeach Avenue, Tempe NSW 2044","Tempe","Tempe","NSW","Australia","https://www.innerwest.nsw.gov.au/tempe-reserve",false
f8a0d308-9b59-4265-a7db-54364d5c7857,"Templestowe Park Tennis Club","Corner Porter & Hawtin Sts, Templestowe VIC","Templestowe","Templestowe","VIC","Australia","play.tennis.com.au/TemplestoweParkTennisClub/booking/bookbydate",false
3bb95a1b-842f-4ce1-82f4-43ddc376f9a7,"Tennis World Launceston (Launceston Tennis Centre)","57 Racecourse Crescent, Launceston TAS 7250","Launceston","Launceston","TAS","Australia","https://play.tennis.com.au/TennisWorldLaunceston/Booking",false
99026518-a0aa-4fb8-a66a-c7bff5dd1b26,"Tennis World Melbourne Park (National Tennis Centre)","National Tennis Centre (Level 2), Entrance D, Olympic Blvd, Richmond VIC 3001","Olympic Blvd","Olympic Blvd","VIC","Australia","https://play.tennis.com.au/opencourtsessions/tennisworldmelbournepark",true
e9bbd789-5987-4032-bcda-56f45b37f5ae,"Tennis World North Ryde (Ryde Multisport & Racquet Centre)","16-18 Epping Rd, North Ryde NSW 2113","16-18 Epping Rd","16-18 Epping Rd","NSW","Australia","https://www.tennisworldonline.com.au/",true
36a889e1-7b69-45c8-9cf2-ded3932253bb,"Tennis World North Sydney","37 Ridge St, North Sydney NSW 2060","37 Ridge St","37 Ridge St","NSW","Australia","https://www.nstg.com.au/tennis-court-hire/",true
0fd4ae76-e8e4-4fcc-aed8-429e1b4b0106,"Tennis World Sydney Olympic Park","2 Rod Laver Drive, Sydney Olympic Park NSW 2127","Sydney Olympic Park","Sydney Olympic Park","NSW","Australia","https://www.tennisworld.net.au/tennis-world-sydney/",false
afb00956-ae8a-458e-bc05-90da76a928e0,"Tennis World Sydney Olympic Park","2 Rod Laver Dr, Sydney Olympic Park NSW 2127","2 Rod Laver Dr","2 Rod Laver Dr","NSW","Australia","https://play.tennis.com.au/opencourtsessions/tennisworldsydney",true
862e9ad5-3cb2-48e7-93ef-b5f5611d5940,"The Crescent Synthetic (Annandale)","The Crescent, Annandale NSW 2038","The Crescent","The Crescent","NSW","Australia","https://www.innerwest.nsw.gov.au/explore/parks-sport-and-recreation/sporting-grounds/book-a-sporting-ground",false
afbba9d5-0587-4b44-a3f5-979963e212cd,"The Football Centre","Osborne Park, Perth WA","Osborne Park","Osborne Park","WA","Australia","https://footballcentre.com.au/group-bookings/",false
7d134708-cb39-4161-803f-c82cb989cb3a,"The Gap Tennis Club","200 Settlement Rd, The Gap QLD 4061","200 Settlement Rd","Settlement Rd","QLD","Australia","https://thegaptennisclub.com.au/index.php/programs/pickle-ball/",true
c6002fb5-f86a-4097-9467-73b4cc0c8479,"The Glade Reserve Tennis Courts (KRG)","Glade Ave, Wahroonga NSW 2076","Glade Ave","Glade Ave","NSW","Australia","https://krg.bookable.net.au/venues/12/the-glade-reserve-tennis-courts",true
f51c8913-34cf-4f08-ae81-9f08e8e9427f,"The Jar – South Melbourne","29 White St, South Melbourne VIC","29 White St","29 White St","VIC","Australia","https://thejarpickleball.com.au",true
6116bbc2-f1bf-4d36-857c-5eb2793c01ff,"The Jar Pickleball Club","Pyrmont NSW 2009","Pyrmont","Pyrmont","NSW","Australia","https://www.thejar.com.au/pickleball",false
4cc7e018-fe65-4161-8605-231cc81a9c63,"The Willis Recreation & Sports Centre – Pickleball","325A Eastern Valley Way, Chatswood NSW 2067","325A Eastern Valley Way","325A Eastern Valley Way","NSW","Australia","https://www.tennisvenues.com.au/booking/willis-park-pickleball",true
71d6035d-23b3-4912-85c1-6a623f141958,"Tom Wills Community Field","Grand Parade, Sydney Olympic Park NSW 2127","Sydney Olympic Park","Sydney Olympic Park","NSW","Australia","https://www.sydneyolympicpark.com.au/tom-wills-field",false
c292629f-a5a0-48fa-bcc3-2ab993df49c7,"Toongabbie Sports Complex","Bungaree Road, Toongabbie NSW 2146","Toongabbie","Toongabbie","NSW","Australia","https://www.blacktown.nsw.gov.au/toongabbie",false
f03290fa-ab82-4250-aaf7-b16c77969fa5,"Trevallyn Tennis Club","60 Gorge Road, Trevallyn TAS 7250","Trevallyn","Trevallyn","TAS","Australia","https://play.tennis.com.au/trevallyntennisclub/CourtBooking",false
b4f08386-ffc6-465e-8e3e-7269011e5c93,"Truganina Tennis Club","73 Alcock Rd, Truganina VIC","Truganina","Truganina","VIC","Australia","play.tennis.com.au/TruganinaTennisClub",false
ed326cfc-f872-4959-889c-6364c050616a,"Trumper Park Tennis Centre","Quarry Street, Paddington NSW 2021","Paddington","Paddington","NSW","Australia","https://play.tennis.com.au/trumperpark",false
09bff9fe-3b11-47f8-89b1-a41db9367405,"Turrella Reserve","Turrella Street, Turrella NSW 2205","Turrella","Turrella","NSW","Australia","https://www.bayside.nsw.gov.au/sports-grounds",false
eca7f47e-c626-4277-9871-95575cc23d08,"Ultimate Soccer (Fairfield)","46–48 Smithfield Rd, Prairiewood NSW 2176","46–48 Smithfield Rd","46–48 Smithfield Rd","NSW","Australia","https://ultimatesoccer.com.au/book-a-pitch/",true
6800881f-3e0a-4983-ad4e-1e0657e4c9ca,"Ultimate Soccer Fairfield","Vine Street, Fairfield NSW 2165","Fairfield","Fairfield","NSW","Australia","https://www.ultimatesoccer.com.au/fairfield",false
2c190bc3-03e4-4f26-90bf-c7e1701ec8cf,"Ultimo Community Centre","40 William Henry St, Ultimo NSW 2007","40 William Henry St","40 William Henry St","NSW","Australia","https://www.cityofsydney.nsw.gov.au/community-centres/ultimo-community-centre",true
97e458d7-4163-4d88-8889-742eb612e5b7,"Ulverstone Sports & Leisure Centre","2 Flora Street, West Ulverstone TAS 7315","West Ulverstone","West Ulverstone","TAS","Australia","https://www.centralcoast.tas.gov.au/live/our-facilities/sporting-grounds-facilities/",false
5cc78db3-2b0e-45c2-bb71-e19d2d2e5d89,"Ulverstone Tennis Club","Tasmania","Tasmania","Tasmania","","Australia","https://play.tennis.com.au/UlverstoneTennisClub",false
f4157808-9fe1-4512-a972-b59b75cc3ea6,"UNSW Village Green (Kensington)","High St, Kensington NSW 2052","High St","High St","NSW","Australia","https://www.sport.unsw.edu.au/facilities/village-green",true
77503217-8692-4949-a2f5-2d6d43adf4cf,"UQ Sport Tennis Centre","The University of Queensland, Blair Dr, St Lucia QLD 4067","Blair Dr","Blair Dr","QLD","Australia","https://uqsport.com.au/venues/tennis-centre/",true
3bfc20d3-8106-4abe-a69b-d91a45d25088,"UTAS Unigym (Sandy Bay) – Sports Hall","Dobson Rd, Sandy Bay TAS 7005","Dobson Rd","Dobson Rd","TAS","Australia","https://www.utas.edu.au/campus-services/venue-hire/available-venues",true
d7eb8fa9-8c3e-4679-bee5-2e070b80179f,"UTS Moore Park Tennis","Moore Park Road, Moore Park NSW 2021","Moore Park","Moore Park","NSW","Australia","https://www.uts.edu.au/about/sport-and-recreation/facilities/moore-park",false
e49f6c78-7099-431b-9696-983d779dfd52,"UWA Recreation and Fitness Centre","35 Stirling Highway, Perth WA 6009","35 Stirling Highway","35 Stirling Highway","WA","Australia","https://www.uwa.edu.au/sport/venue-hire/venue-hire",true
3fff0915-ba89-4476-9f81-53e00b21d27d,"Valentine Sports Park","Parkholme Circuit, Glenwood NSW 2768","Glenwood","Glenwood","NSW","Australia","https://www.footballnsw.com.au/valentine-sports-park",false
ec7b095b-2c3a-4bb1-b5ed-03f6c486a797,"Valentine Sports Park (Glenwood)","235–257 Meurants Ln, Glenwood NSW 2768","235–257 Meurants Ln","– Meurants Ln","NSW","Australia","https://valentinesportspark.com.au/field-court-hire/",true
014ea196-7fad-4287-aff3-8a6b7906e5e0,"Victoria Park","City Road, Camperdown NSW 2050","Camperdown","Camperdown","NSW","Australia","https://www.cityofsydney.nsw.gov.au/sports-facility-booking-services/book-sports-field",false
dfa79092-add3-405d-9bda-59e32021b848,"Virginia United FC (Field Hire)","574 Nudgee Rd, Nundah QLD 4012","574 Nudgee Rd","Nudgee Rd","QLD","Australia","https://www.virginiaunitedfc.com.au/fields",true
6f7a214b-0803-47a4-b9fd-2137a4a594be,"Wakehurst – Pickleball (Seaforth)","Upper Clontarf St, Seaforth NSW 2092","Upper Clontarf St","Upper Clontarf St","NSW","Australia","https://www.tennisvenues.com.au/booking/wakehurst-park-pickleball",true
b0850ba8-1fd4-4d04-b7b6-942579240838,"Wakehurst Tennis (Seaforth)","Upper Clontarf St, Seaforth NSW 2092","Upper Clontarf St","Upper Clontarf St","NSW","Australia","https://www.tennisvenues.com.au/booking/wakehurst-park-tennis",true
abe3cf2f-b8be-474f-b3e2-abd708d6ed62,"Wakehurst Tennis Club","Boondah Road, Seaforth NSW 2092","Seaforth","Seaforth","NSW","Australia","https://www.wakehursttennis.com.au/book",false
41e20646-003e-430b-91e0-32c81f30416e,"Wanderers Fives (Rooty Hill)","55 Francis Rd, Rooty Hill NSW 2766","55 Francis Rd","55 Francis Rd","NSW","Australia","https://wanderersfives.com.au/pitch-hire",true
3711f159-dca8-4177-9874-e6841e9d53a1,"Wantirna Tennis Club","Cnr Mountain Hwy & Burwood Rd, Wantirna VIC","Wantirna","Wantirna","VIC","Australia","play.tennis.com.au/wantirnatennisclub",false
73b72a5d-d965-41c0-9dc1-86e64b8a0467,"Warrimoo Oval Courts (KRG)","Warrimoo Ave, St Ives NSW 2075","Warrimoo Ave","Warrimoo Ave","NSW","Australia","https://krg.bookable.net.au/venues/51/warrimoo-oval-tennis-courts",true
e62713f3-4a3f-46c2-a708-e8f3e14caa74,"Waterloo Oval","Elizabeth Street, Waterloo NSW 2017","Waterloo","Waterloo","NSW","Australia","https://www.cityofsydney.nsw.gov.au/sports-facility-booking-services/book-sports-field",false
0bfaa797-26ae-4cf4-a73f-1fcabfb49be5,"Watsons Oval","Spearwood WA","Spearwood WA","Spearwood WA","WA","Australia","https://www.spacetoco.com/space/spearwood-wa-watsons-oval",false
9471f41c-4a4f-41ce-931a-16c8784051b7,"Wentworth Park Sportsfields","Wentworth Park Road, Glebe NSW 2037","Glebe","Glebe","NSW","Australia","https://www.cityofsydney.nsw.gov.au/sports-facility-booking-services/book-sports-field",false
cc01ef65-851d-45a2-834b-165aaaf3d163,"Wentworth Park Sportsgrounds","Clarence St, Howrah TAS 7018","Clarence St","Clarence St","TAS","Australia","https://www.ccc.tas.gov.au/explore/sportsgrounds-for-hire/",true
bba494a1-6c61-4ef9-96b4-0b866e0dd00e,"West End Tennis Club","39 Vulture St, West End QLD 4101","39 Vulture St","39 Vulture St","QLD","Australia","https://www.westendtennisclub.com.au/",true
8990d346-6341-4527-ac19-bc2ac630c92e,"West Epping Park (Tennis & Pickleball)","15X Dent St, Epping NSW 2121","15X Dent St","15X Dent St","NSW","Australia","https://play.tennis.com.au/westeppingpark",true
87a627ac-42ef-4fc0-a4a4-55e1560d8ba2,"Westgate Indoor Sports","Cnr Grieve Pde & Dohertys Rd, Altona North VIC","Cnr Grieve Pde & Dohertys Rd","Cnr Grieve Pde & Dohertys Rd","VIC","Australia","https://westgateindoorsports.com.au/",true
e872e938-a7e8-4e7b-b3c7-4e9438af4140,"Whaleback Tennis & Pickleball Courts","Whaleback Avenue, Parkwood WA","Whaleback Avenue","Whaleback Avenue","WA","Australia","https://www.spacetoco.com/space/parkwood-wa-whaleback-pickleball-and-tennis-courts",true
01d66fd7-122e-4a84-90a4-f75d88c56530,"White City Tennis","30 Alma Street, Paddington NSW 2021","Paddington","Paddington","NSW","Australia","https://www.whitecitytennis.com.au/court-hire",false
4cbe5895-a19f-4318-987b-9ecac3593f5e,"Williamstown Tennis Club","Corner Morris St & Esplanade, Williamstown VIC","Williamstown","Williamstown","VIC","Australia","play.tennis.com.au/court-hire/WilliamstownTennisClub",false
14fd69d7-897c-4a82-bea1-fcc0886336bd,"Willoughby Leisure Centre – Pickleball","2–4 Small St, Willoughby NSW 2068","2–4 Small St","2–4 Small St","NSW","Australia","https://www.willoughbyleisure.com.au/Bookings-and-availability/Book-a-pickleball-court",true
9de7afa4-2f42-4c2a-aad0-f9cd4a96bfc8,"Wodonga Tennis Centre","Dalgleish St, Wodonga VIC 3690","Dalgleish St","Dalgleish St","VIC","Australia","https://play.tennis.com.au/wodongatenniscentre/booking/bookbydate",true
52f8a399-891b-4e80-b3aa-df8e60b40cc2,"Wynnum Tennis Centre","Colina St, Wynnum QLD 4178","Colina St","Colina St","QLD","Australia","https://www.tennis.com.au/queensland/clubs/wynnum-tennis-centre",true
185ae1ef-dda3-4d73-a4ec-8958af82e662,"Wynyard-Somerset Tennis Club","Tasmania","Tasmania","Tasmania","","Australia","https://play.tennis.com.au/WynyardsomersetTennisClub",false
4725dabc-f633-4b66-b976-04f6bcd1e8e1,"York Tennis Courts","22 Barker Street, York WA","22 Barker Street","22 Barker Street","WA","Australia","https://www.spacetoco.com/space/york-wa-tennis-courts",true